{"type":"FeatureCollection","features":[{"type":"Feature","geometry":{"type":"LineString","coordinates":[[106.87997,-6.1105],[106.87998,-6.11051]]},"properties":{"OBJECTID":35,"Shape__Length":2.83468324828336,"bounds":[106.87997,-6.11051,106.87998,-6.1105]}},{"type":"Feature","geometry":{"type":"LineString","coordinates":[[106.88005,-6.11044],[106.88006,-6.11042]]},"properties":{"OBJECTID":36,"Shape__Length":2.94994214510877,"bounds":[106.88005,-6.11044,106.88006,-6.11042]}},{"type":"Feature","geometry":{"type":"LineString","coordinates":[[106.8875,-6.1095],[106.88166,-6.1093],[106.88122,-6.10942],[106.88006,-6.11042]]},"properties":{"OBJECTID":37,"Shape__Length":866.8402055368011,"bounds":[106.88006,-6.11042,106.8875,-6.1093]}},{"type":"Feature","geometry":{"type":"LineString","coordinates":[[106.89336,-6.10964],[106.89693,-6.10976],[106.89935,-6.10974]]},"properties":{"OBJECTID":38,"Shape__Length":663.7643408104831,"bounds":[106.89336,-6.10976,106.89935,-6.10964]}},{"type":"Feature","geometry":{"type":"LineString","coordinates":[[106.87917,-6.1111],[106.88125,-6.10934],[106.88159,-6.10925],[106.88215,-6.10924]]},"properties":{"OBJECTID":39,"Shape__Length":402.458046179628,"bounds":[106.87917,-6.1111,106.88215,-6.10924]}},{"type":"Feature","geometry":{"type":"LineString","coordinates":[[106.88609,-6.10937],[106.88217,-6.10924]]},"properties":{"OBJECTID":40,"Shape__Length":435.154267871748,"bounds":[106.88217,-6.10937,106.88609,-6.10924]}},{"type":"Feature","geometry":{"type":"LineString","coordinates":[[106.88215,-6.10924],[106.88217,-6.10924]]},"properties":{"OBJECTID":41,"Shape__Length":2.34650162925224,"bounds":[106.88215,-6.10924,106.88217,-6.10924]}},{"type":"Feature","geometry":{"type":"LineString","coordinates":[[106.88609,-6.10937],[106.88666,-6.10937],[106.88724,-6.10924],[106.88765,-6.10892],[106.88795,-6.10837]]},"properties":{"OBJECTID":42,"Shape__Length":255.920010841334,"bounds":[106.88609,-6.10937,106.88795,-6.10837]}},{"type":"Feature","geometry":{"type":"LineString","coordinates":[[106.89175,-6.10955],[106.88687,-6.10938],[106.88718,-6.10931],[106.88756,-6.10907],[106.88781,-6.10877],[106.88799,-6.10837]]},"properties":{"OBJECTID":43,"Shape__Length":718.353341471601,"bounds":[106.88687,-6.10955,106.89175,-6.10837]}},{"type":"Feature","geometry":{"type":"LineString","coordinates":[[106.8875,-6.1095],[106.88811,-6.10944],[106.89337,-6.10971],[106.89935,-6.10984]]},"properties":{"OBJECTID":44,"Shape__Length":1313.4930910321402,"bounds":[106.8875,-6.10984,106.89935,-6.10944]}},{"type":"Feature","geometry":{"type":"LineString","coordinates":[[106.89175,-6.10955],[106.89336,-6.10964]]},"properties":{"OBJECTID":45,"Shape__Length":177.881927101418,"bounds":[106.89175,-6.10964,106.89336,-6.10955]}},{"type":"Feature","geometry":{"type":"LineString","coordinates":[[106.82741,-6.15833],[106.82729,-6.15239],[106.8272,-6.15125],[106.82681,-6.1489]]},"properties":{"OBJECTID":46,"Shape__Length":1047.17774512856,"bounds":[106.82681,-6.15833,106.82741,-6.1489]}},{"type":"Feature","geometry":{"type":"LineString","coordinates":[[106.82689,-6.1489],[106.82721,-6.15084],[106.82737,-6.1524],[106.82749,-6.15833]]},"properties":{"OBJECTID":47,"Shape__Length":1047.2240625871502,"bounds":[106.82689,-6.15833,106.82749,-6.1489]}},{"type":"Feature","geometry":{"type":"LineString","coordinates":[[106.84167,-6.1625],[106.8405,-6.1589],[106.83882,-6.15201],[106.83822,-6.15]]},"properties":{"OBJECTID":48,"Shape__Length":1438.9623346180701,"bounds":[106.83822,-6.1625,106.84167,-6.15]}},{"type":"Feature","geometry":{"type":"LineString","coordinates":[[106.83842,-6.15],[106.83899,-6.15198],[106.84042,-6.15801],[106.84103,-6.1599],[106.84164,-6.16151],[106.8419,-6.1625],[106.84185,-6.1625]]},"properties":{"OBJECTID":49,"Shape__Length":1445.98210331442,"bounds":[106.83842,-6.1625,106.8419,-6.15]}},{"type":"Feature","geometry":{"type":"LineString","coordinates":[[106.82632,-6.1468],[106.82665,-6.14775],[106.82689,-6.1489]]},"properties":{"OBJECTID":50,"Shape__Length":241.320436244894,"bounds":[106.82632,-6.1489,106.82689,-6.1468]}},{"type":"Feature","geometry":{"type":"LineString","coordinates":[[106.82632,-6.1468],[106.82591,-6.14589]]},"properties":{"OBJECTID":51,"Shape__Length":110.590306663382,"bounds":[106.82591,-6.1468,106.82632,-6.14589]}},{"type":"Feature","geometry":{"type":"LineString","coordinates":[[106.82278,-6.14064],[106.82237,-6.13954],[106.82181,-6.1375]]},"properties":{"OBJECTID":52,"Shape__Length":363.836044460878,"bounds":[106.82181,-6.14064,106.82278,-6.1375]}},{"type":"Feature","geometry":{"type":"LineString","coordinates":[[106.82584,-6.14596],[106.82411,-6.1431],[106.82374,-6.14262],[106.8229,-6.14125],[106.82271,-6.14085],[106.82266,-6.1407],[106.82271,-6.14067],[106.8223,-6.13956],[106.82173,-6.1375]]},"properties":{"OBJECTID":53,"Shape__Length":1066.0182640543799,"bounds":[106.82173,-6.14596,106.82584,-6.1375]}},{"type":"Feature","geometry":{"type":"LineString","coordinates":[[106.82584,-6.14596],[106.82634,-6.14707],[106.82663,-6.14805]]},"properties":{"OBJECTID":54,"Shape__Length":247.45758142482,"bounds":[106.82584,-6.14805,106.82663,-6.14596]}},{"type":"Feature","geometry":{"type":"LineString","coordinates":[[106.8585,-6.22917],[106.85841,-6.2239],[106.85828,-6.22285],[106.85806,-6.22195],[106.85764,-6.22081],[106.8573,-6.22015],[106.85654,-6.219],[106.85537,-6.21745],[106.85607,-6.21795],[106.85703,-6.21836],[106.8579,-6.21857],[106.85879,-6.21857],[106.86071,-6.21838],[106.86155,-6.21795],[106.86247,-6.21714],[106.86297,-6.21684]]},"properties":{"OBJECTID":20,"Shape__Length":2314.6510044964903,"bounds":[106.85537,-6.22917,106.86297,-6.21684]}},{"type":"Feature","geometry":{"type":"LineString","coordinates":[[106.86287,-6.21672],[106.86128,-6.2175],[106.85976,-6.21835],[106.85895,-6.21852],[106.85813,-6.21854],[106.8576,-6.21847],[106.85691,-6.21828],[106.85574,-6.21769],[106.85535,-6.21736],[106.85417,-6.21584]]},"properties":{"OBJECTID":21,"Shape__Length":1125.41146379481,"bounds":[106.85417,-6.21854,106.86287,-6.21584]}},{"type":"Feature","geometry":{"type":"LineString","coordinates":[[106.9375,-6.21727],[106.94648,-6.21832],[106.95024,-6.21886],[106.9521,-6.219],[106.95644,-6.21954]]},"properties":{"OBJECTID":22,"Shape__Length":2111.92456402216,"bounds":[106.9375,-6.21954,106.95644,-6.21727]}},{"type":"Feature","geometry":{"type":"LineString","coordinates":[[106.9375,-6.21737],[106.94731,-6.21855],[106.94871,-6.21879],[106.94873,-6.21875],[106.95108,-6.21904],[106.95188,-6.21923],[106.95635,-6.21966]]},"properties":{"OBJECTID":23,"Shape__Length":2107.1984836792803,"bounds":[106.9375,-6.21966,106.95635,-6.21737]}},{"type":"Feature","geometry":{"type":"LineString","coordinates":[[106.87917,-6.1111],[106.87863,-6.11145],[106.87732,-6.11202],[106.8764,-6.1123],[106.8761,-6.1125]]},"properties":{"OBJECTID":24,"Shape__Length":375.62275316695,"bounds":[106.8761,-6.1125,106.87917,-6.1111]}},{"type":"Feature","geometry":{"type":"LineString","coordinates":[[106.87919,-6.11113],[106.87872,-6.11149],[106.87726,-6.11211],[106.8763,-6.11243]]},"properties":{"OBJECTID":25,"Shape__Length":353.271791100568,"bounds":[106.8763,-6.11243,106.87919,-6.11113]}},{"type":"Feature","geometry":{"type":"LineString","coordinates":[[106.8763,-6.11243],[106.8762,-6.1125]]},"properties":{"OBJECTID":26,"Shape__Length":14.113086673013798,"bounds":[106.8762,-6.1125,106.8763,-6.11243]}},{"type":"Feature","geometry":{"type":"LineString","coordinates":[[106.87922,-6.11219],[106.87949,-6.11171],[106.87974,-6.11097],[106.88005,-6.11044]]},"properties":{"OBJECTID":27,"Shape__Length":215.444418863658,"bounds":[106.87922,-6.11219,106.88005,-6.11044]}},{"type":"Feature","geometry":{"type":"LineString","coordinates":[[106.87931,-6.112],[106.87947,-6.11171],[106.87972,-6.11097],[106.87998,-6.11051]]},"properties":{"OBJECTID":28,"Shape__Length":181.76402847240402,"bounds":[106.87931,-6.112,106.87998,-6.11051]}},{"type":"Feature","geometry":{"type":"LineString","coordinates":[[106.87919,-6.11113],[106.87997,-6.1105]]},"properties":{"OBJECTID":29,"Shape__Length":110.80464340359701,"bounds":[106.87919,-6.11113,106.87997,-6.1105]}},{"type":"Feature","geometry":{"type":"LineString","coordinates":[[106.87959,-6.1125],[106.88147,-6.11105]]},"properties":{"OBJECTID":30,"Shape__Length":262.969984070753,"bounds":[106.87959,-6.1125,106.88147,-6.11105]}},{"type":"Feature","geometry":{"type":"LineString","coordinates":[[106.88003,-6.11155],[106.87944,-6.11199],[106.87925,-6.11222]]},"properties":{"OBJECTID":31,"Shape__Length":114.61218545345402,"bounds":[106.87925,-6.11222,106.88003,-6.11155]}},{"type":"Feature","geometry":{"type":"LineString","coordinates":[[106.8762,-6.1125],[106.87473,-6.11344],[106.8761,-6.1125]]},"properties":{"OBJECTID":32,"Shape__Length":380.95005463244104,"bounds":[106.87473,-6.11344,106.8762,-6.1125]}},{"type":"Feature","geometry":{"type":"LineString","coordinates":[[106.87931,-6.112],[106.87884,-6.1125]]},"properties":{"OBJECTID":33,"Shape__Length":76.36154470385429,"bounds":[106.87884,-6.1125,106.87931,-6.112]}},{"type":"Feature","geometry":{"type":"LineString","coordinates":[[106.87922,-6.11219],[106.87925,-6.11222]]},"properties":{"OBJECTID":34,"Shape__Length":5.53131870570276,"bounds":[106.87922,-6.11222,106.87925,-6.11219]}},{"type":"Feature","geometry":{"type":"LineString","coordinates":[[106.82591,-6.14589],[106.824,-6.14279],[106.82406,-6.14276],[106.82283,-6.14062],[106.82278,-6.14064]]},"properties":{"OBJECTID":55,"Shape__Length":695.776121393704,"bounds":[106.82278,-6.14589,106.82591,-6.14062]}},{"type":"Feature","geometry":{"type":"LineString","coordinates":[[106.83063,-6.1375],[106.83068,-6.13932],[106.83097,-6.14011],[106.83135,-6.14063],[106.83177,-6.14102],[106.83211,-6.14124],[106.8341,-6.14204],[106.83499,-6.14258],[106.8355,-6.143],[106.83598,-6.14354],[106.83652,-6.14439]]},"properties":{"OBJECTID":56,"Shape__Length":1091.7160658628802,"bounds":[106.83063,-6.14439,106.83652,-6.1375]}},{"type":"Feature","geometry":{"type":"LineString","coordinates":[[106.84004,-6.1375],[106.83721,-6.14466],[106.8371,-6.14526],[106.83714,-6.146],[106.8368,-6.1448],[106.83651,-6.14415],[106.83598,-6.14336],[106.83537,-6.14272],[106.83499,-6.14241],[106.83419,-6.14193],[106.83216,-6.14116],[106.83166,-6.14083],[106.83123,-6.14037],[106.8309,-6.13979],[106.83074,-6.13924],[106.83069,-6.13875],[106.83074,-6.1375]]},"properties":{"OBJECTID":57,"Shape__Length":2285.78285410109,"bounds":[106.83069,-6.146,106.84004,-6.1375]}},{"type":"Feature","geometry":{"type":"LineString","coordinates":[[106.83652,-6.14439],[106.83762,-6.14794]]},"properties":{"OBJECTID":58,"Shape__Length":411.09961420454704,"bounds":[106.83652,-6.14794,106.83762,-6.14439]}},{"type":"Feature","geometry":{"type":"LineString","coordinates":[[106.84015,-6.1375],[106.83747,-6.14419],[106.83721,-6.14503],[106.83717,-6.14547],[106.83722,-6.14598],[106.83842,-6.15]]},"properties":{"OBJECTID":59,"Shape__Length":1464.36398598093,"bounds":[106.83717,-6.15,106.84015,-6.1375]}},{"type":"Feature","geometry":{"type":"LineString","coordinates":[[106.83762,-6.14794],[106.83822,-6.15]]},"properties":{"OBJECTID":60,"Shape__Length":237.795515029788,"bounds":[106.83762,-6.15,106.83822,-6.14794]}},{"type":"Feature","geometry":{"type":"LineString","coordinates":[[106.82681,-6.1489],[106.82663,-6.14805]]},"properties":{"OBJECTID":61,"Shape__Length":96.91110090003069,"bounds":[106.82663,-6.1489,106.82681,-6.14805]}},{"type":"Feature","geometry":{"type":"LineString","coordinates":[[106.85627,-6.125],[106.85892,-6.12386],[106.86193,-6.12271],[106.86313,-6.12241],[106.86672,-6.12178],[106.868,-6.12133],[106.86896,-6.12074],[106.87959,-6.1125]]},"properties":{"OBJECTID":62,"Shape__Length":2980.7222498446004,"bounds":[106.85627,-6.125,106.87959,-6.1125]}},{"type":"Feature","geometry":{"type":"LineString","coordinates":[[106.85594,-6.125],[106.85888,-6.12372],[106.86215,-6.12248],[106.86273,-6.12231],[106.86614,-6.12168],[106.86706,-6.12139],[106.86752,-6.12117],[106.86872,-6.12038],[106.87439,-6.11603],[106.87884,-6.1125]]},"properties":{"OBJECTID":63,"Shape__Length":2934.7313127798598,"bounds":[106.85594,-6.125,106.87884,-6.1125]}},{"type":"Feature","geometry":{"type":"LineString","coordinates":[[106.82908,-6.13265],[106.8279,-6.13206],[106.8273,-6.13193],[106.82677,-6.13197],[106.83088,-6.13081],[106.83086,-6.13074],[106.82969,-6.131],[106.82526,-6.13222],[106.82297,-6.1326],[106.82182,-6.13286],[106.82133,-6.13288],[106.82077,-6.13282],[106.8194,-6.13237],[106.81866,-6.132],[106.81683,-6.13092],[106.81559,-6.13032],[106.81389,-6.13],[106.81336,-6.13005],[106.81251,-6.13028]]},"properties":{"OBJECTID":64,"Shape__Length":2888.7521393144602,"bounds":[106.81251,-6.13288,106.83088,-6.13]}},{"type":"Feature","geometry":{"type":"LineString","coordinates":[[106.82386,-6.13266],[106.82324,-6.1327],[106.82191,-6.13296],[106.82134,-6.13299],[106.82076,-6.13292],[106.81996,-6.13268],[106.81899,-6.13229],[106.81674,-6.13102],[106.81575,-6.13052],[106.81522,-6.13032],[106.81428,-6.13011],[106.81369,-6.13009],[106.81253,-6.13034]]},"properties":{"OBJECTID":65,"Shape__Length":1329.6475060645,"bounds":[106.81253,-6.13299,106.82386,-6.13009]}},{"type":"Feature","geometry":{"type":"LineString","coordinates":[[106.81682,-6.13673],[106.81939,-6.13608],[106.8202,-6.13575],[106.82068,-6.13542],[106.82205,-6.13379],[106.82247,-6.13342],[106.82304,-6.13305],[106.82386,-6.13266]]},"properties":{"OBJECTID":66,"Shape__Length":928.1769160235041,"bounds":[106.81682,-6.13673,106.82386,-6.13266]}},{"type":"Feature","geometry":{"type":"LineString","coordinates":[[106.81487,-6.13788],[106.81613,-6.13751],[106.81723,-6.137],[106.81959,-6.13641],[106.81994,-6.13637],[106.82045,-6.13642],[106.82094,-6.13662],[106.82142,-6.13702],[106.82173,-6.1375]]},"properties":{"OBJECTID":67,"Shape__Length":836.731108978416,"bounds":[106.81487,-6.13788,106.82173,-6.13637]}},{"type":"Feature","geometry":{"type":"LineString","coordinates":[[106.81982,-6.13628],[106.82045,-6.13612],[106.82162,-6.1355],[106.82263,-6.13538],[106.82428,-6.13483],[106.82522,-6.13432],[106.82592,-6.13413],[106.82654,-6.13385]]},"properties":{"OBJECTID":68,"Shape__Length":797.962204129058,"bounds":[106.81982,-6.13628,106.82654,-6.13385]}},{"type":"Feature","geometry":{"type":"LineString","coordinates":[[106.81982,-6.13628],[106.82054,-6.13635],[106.82104,-6.13657],[106.82157,-6.13705],[106.82181,-6.1375]]},"properties":{"OBJECTID":69,"Shape__Length":276.197927396744,"bounds":[106.81982,-6.1375,106.82181,-6.13628]}},{"type":"Feature","geometry":{"type":"LineString","coordinates":[[106.81933,-6.1362],[106.82004,-6.13592],[106.82059,-6.1356],[106.82197,-6.13401],[106.82244,-6.13357],[106.82318,-6.13307],[106.82377,-6.13282],[106.82563,-6.1323],[106.827,-6.13212],[106.82786,-6.13228],[106.82884,-6.13275]]},"properties":{"OBJECTID":70,"Shape__Length":1213.76219319157,"bounds":[106.81933,-6.1362,106.82884,-6.13212]}},{"type":"Feature","geometry":{"type":"LineString","coordinates":[[106.82884,-6.13275],[106.83186,-6.13159],[106.83413,-6.1304],[106.83509,-6.13001],[106.83593,-6.12976],[106.84434,-6.12816]]},"properties":{"OBJECTID":71,"Shape__Length":1801.7538686750502,"bounds":[106.82884,-6.13275,106.84434,-6.12816]}},{"type":"Feature","geometry":{"type":"LineString","coordinates":[[106.82917,-6.13272],[106.83194,-6.13164],[106.83435,-6.13039],[106.83587,-6.12983],[106.84418,-6.12829]]},"properties":{"OBJECTID":72,"Shape__Length":1746.22326089552,"bounds":[106.82917,-6.13272,106.84418,-6.12829]}},{"type":"Feature","geometry":{"type":"LineString","coordinates":[[106.81594,-6.13681],[106.81682,-6.13673]]},"properties":{"OBJECTID":73,"Shape__Length":98.00440405198259,"bounds":[106.81594,-6.13681,106.81682,-6.13673]}},{"type":"Feature","geometry":{"type":"LineString","coordinates":[[106.85842,-6.22917],[106.85864,-6.24285]]},"properties":{"OBJECTID":1,"Shape__Length":1517.72417192397,"bounds":[106.85842,-6.24285,106.85864,-6.22917]}},{"type":"Feature","geometry":{"type":"LineString","coordinates":[[106.85877,-6.24285],[106.8585,-6.22917]]},"properties":{"OBJECTID":2,"Shape__Length":1518.030678267,"bounds":[106.8585,-6.24285,106.85877,-6.22917]}},{"type":"Feature","geometry":{"type":"LineString","coordinates":[[106.85497,-6.25576],[106.85517,-6.2553],[106.85525,-6.25534],[106.85528,-6.25528],[106.85523,-6.25526],[106.85583,-6.25382],[106.85773,-6.2496],[106.85838,-6.24796],[106.85862,-6.24703],[106.85875,-6.24607],[106.85877,-6.2435]]},"properties":{"OBJECTID":3,"Shape__Length":1460.0205201457402,"bounds":[106.85497,-6.25576,106.85877,-6.2435]}},{"type":"Feature","geometry":{"type":"LineString","coordinates":[[106.85865,-6.2435],[106.85867,-6.24577],[106.85853,-6.24699],[106.85832,-6.24784],[106.85772,-6.24937],[106.85506,-6.25519],[106.85509,-6.25526],[106.85489,-6.25573]]},"properties":{"OBJECTID":4,"Shape__Length":1445.59109514559,"bounds":[106.85489,-6.25573,106.85867,-6.2435]}},{"type":"Feature","geometry":{"type":"LineString","coordinates":[[106.85877,-6.2435],[106.85877,-6.24285]]},"properties":{"OBJECTID":5,"Shape__Length":72.2329482093179,"bounds":[106.85877,-6.2435,106.85877,-6.24285]}},{"type":"Feature","geometry":{"type":"LineString","coordinates":[[106.85864,-6.24285],[106.85865,-6.2435]]},"properties":{"OBJECTID":6,"Shape__Length":72.70749381109209,"bounds":[106.85864,-6.2435,106.85865,-6.24285]}},{"type":"Feature","geometry":{"type":"LineString","coordinates":[[106.85489,-6.25573],[106.85476,-6.25602]]},"properties":{"OBJECTID":7,"Shape__Length":35.096341195771394,"bounds":[106.85476,-6.25602,106.85489,-6.25573]}},{"type":"Feature","geometry":{"type":"LineString","coordinates":[[106.85476,-6.25602],[106.85417,-6.25734]]},"properties":{"OBJECTID":8,"Shape__Length":159.79664654366002,"bounds":[106.85417,-6.25734,106.85476,-6.25602]}},{"type":"Feature","geometry":{"type":"LineString","coordinates":[[106.85417,-6.25755],[106.85484,-6.25606]]},"properties":{"OBJECTID":9,"Shape__Length":180.984024826572,"bounds":[106.85417,-6.25755,106.85484,-6.25606]}},{"type":"Feature","geometry":{"type":"LineString","coordinates":[[106.85484,-6.25606],[106.85497,-6.25576]]},"properties":{"OBJECTID":10,"Shape__Length":35.065488388585095,"bounds":[106.85484,-6.25606,106.85497,-6.25576]}},{"type":"Feature","geometry":{"type":"LineString","coordinates":[[106.92393,-6.21565],[106.9375,-6.21727]]},"properties":{"OBJECTID":11,"Shape__Length":1512.8639059546902,"bounds":[106.92393,-6.21727,106.9375,-6.21565]}},{"type":"Feature","geometry":{"type":"LineString","coordinates":[[106.92378,-6.21572],[106.9375,-6.21737]]},"properties":{"OBJECTID":12,"Shape__Length":1529.97523847457,"bounds":[106.92378,-6.21737,106.9375,-6.21572]}},{"type":"Feature","geometry":{"type":"LineString","coordinates":[[106.91667,-6.21475],[106.92393,-6.21565]]},"properties":{"OBJECTID":13,"Shape__Length":810.012420532949,"bounds":[106.91667,-6.21565,106.92393,-6.21475]}},{"type":"Feature","geometry":{"type":"LineString","coordinates":[[106.91666,-6.21485],[106.92378,-6.21572]]},"properties":{"OBJECTID":14,"Shape__Length":793.4120616756101,"bounds":[106.91666,-6.21572,106.92378,-6.21485]}},{"type":"Feature","geometry":{"type":"LineString","coordinates":[[106.86208,-6.20834],[106.86248,-6.2098],[106.86274,-6.2105],[106.86326,-6.21133],[106.86386,-6.21191],[106.86384,-6.21195],[106.86326,-6.21161],[106.86293,-6.21151],[106.86236,-6.21146],[106.86193,-6.21152],[106.85817,-6.21303],[106.85564,-6.21413],[106.85502,-6.21432],[106.85417,-6.21434]]},"properties":{"OBJECTID":15,"Shape__Length":1600.8934371976502,"bounds":[106.85417,-6.21434,106.86386,-6.20834]}},{"type":"Feature","geometry":{"type":"LineString","coordinates":[[106.91666,-6.21485],[106.90662,-6.21361],[106.9049,-6.21346],[106.89205,-6.21319],[106.8904,-6.21336],[106.88778,-6.21408],[106.88643,-6.21424],[106.87216,-6.21509],[106.86967,-6.21515],[106.86798,-6.21511],[106.86729,-6.21501],[106.86682,-6.21478],[106.86387,-6.21209],[106.86315,-6.21167],[106.86257,-6.21155],[106.86213,-6.21156],[106.86154,-6.21172],[106.85532,-6.21433],[106.85497,-6.21442],[106.85417,-6.21443]]},"properties":{"OBJECTID":16,"Shape__Length":7141.91922660906,"bounds":[106.85417,-6.21515,106.91666,-6.21155]}},{"type":"Feature","geometry":{"type":"LineString","coordinates":[[106.86216,-6.20833],[106.86276,-6.21038],[106.86323,-6.21117],[106.8639,-6.21186],[106.86616,-6.21394]]},"properties":{"OBJECTID":17,"Shape__Length":784.20119997806,"bounds":[106.86216,-6.21394,106.86616,-6.20833]}},{"type":"Feature","geometry":{"type":"LineString","coordinates":[[106.86943,-6.21471],[106.87081,-6.21472],[106.8717,-6.21491],[106.87232,-6.21496],[106.87967,-6.21449],[106.88659,-6.21415],[106.88811,-6.21392],[106.89059,-6.21324],[106.89216,-6.21311],[106.90527,-6.2134],[106.91667,-6.21475]]},"properties":{"OBJECTID":18,"Shape__Length":5256.151892614361,"bounds":[106.86943,-6.21496,106.91667,-6.21311]}},{"type":"Feature","geometry":{"type":"LineString","coordinates":[[106.85842,-6.22917],[106.85832,-6.22376],[106.85818,-6.22283],[106.85786,-6.22161],[106.85744,-6.22057],[106.85689,-6.21961],[106.85417,-6.21602]]},"properties":{"OBJECTID":19,"Shape__Length":1587.04523099394,"bounds":[106.85417,-6.22917,106.85842,-6.21602]}},{"type":"Feature","geometry":{"type":"LineString","coordinates":[[106.725,-6.16229],[106.72785,-6.16184],[106.73333,-6.16084]]},"properties":{"OBJECTID":99,"Shape__Length":936.474550129881,"bounds":[106.725,-6.16229,106.73333,-6.16084]}},{"type":"Feature","geometry":{"type":"LineString","coordinates":[[106.725,-6.16243],[106.73333,-6.16093]]},"properties":{"OBJECTID":100,"Shape__Length":937.3390936329511,"bounds":[106.725,-6.16243,106.73333,-6.16093]}},{"type":"Feature","geometry":{"type":"LineString","coordinates":[[106.84864,-6.20833],[106.85005,-6.20983],[106.85095,-6.21105],[106.85171,-6.21238],[106.85252,-6.21344],[106.85304,-6.21391],[106.85329,-6.21405],[106.85365,-6.21422],[106.85417,-6.21434]]},"properties":{"OBJECTID":165,"Shape__Length":924.975333242828,"bounds":[106.84864,-6.21434,106.85417,-6.20833]}},{"type":"Feature","geometry":{"type":"LineString","coordinates":[[106.84881,-6.20935],[106.84914,-6.20995],[106.8497,-6.21073],[106.8512,-6.21223],[106.85417,-6.21602]]},"properties":{"OBJECTID":166,"Shape__Length":949.341948342653,"bounds":[106.84881,-6.21602,106.85417,-6.20935]}},{"type":"Feature","geometry":{"type":"LineString","coordinates":[[106.84881,-6.20935],[106.84925,-6.21026],[106.85043,-6.2118],[106.85107,-6.21288]]},"properties":{"OBJECTID":167,"Shape__Length":466.023371039617,"bounds":[106.84881,-6.21288,106.85107,-6.20935]}},{"type":"Feature","geometry":{"type":"MultiLineString","coordinates":[]},"properties":{"OBJECTID":168,"Shape__Length":1.2620388906342,"bounds":[180.0,90.0,-180.0,-90.0]}},{"type":"Feature","geometry":{"type":"LineString","coordinates":[[106.84921,-6.21026],[106.8495,-6.21122],[106.84942,-6.21384]]},"properties":{"OBJECTID":169,"Shape__Length":400.89187295554206,"bounds":[106.84921,-6.21384,106.8495,-6.21026]}},{"type":"Feature","geometry":{"type":"LineString","coordinates":[[106.85254,-6.2136],[106.85294,-6.21395],[106.85335,-6.2142],[106.85417,-6.21443]]},"properties":{"OBJECTID":170,"Shape__Length":206.15653415406103,"bounds":[106.85254,-6.21443,106.85417,-6.2136]}},{"type":"Feature","geometry":{"type":"LineString","coordinates":[[106.85252,-6.21362],[106.85286,-6.21401],[106.85417,-6.21584]]},"properties":{"OBJECTID":171,"Shape__Length":305.740418990831,"bounds":[106.85252,-6.21584,106.85417,-6.21362]}},{"type":"Feature","geometry":{"type":"LineString","coordinates":[[106.85252,-6.21362],[106.85254,-6.2136]]},"properties":{"OBJECTID":172,"Shape__Length":4.35315223185209,"bounds":[106.85252,-6.21362,106.85254,-6.2136]}},{"type":"Feature","geometry":{"type":"LineString","coordinates":[[106.84949,-6.21065],[106.84978,-6.21121],[106.84984,-6.21146],[106.8496,-6.21229],[106.84958,-6.21281]]},"properties":{"OBJECTID":173,"Shape__Length":251.84539693825002,"bounds":[106.84949,-6.21281,106.84984,-6.21065]}},{"type":"Feature","geometry":{"type":"LineString","coordinates":[[106.84924,-6.21029],[106.84949,-6.21065]]},"properties":{"OBJECTID":174,"Shape__Length":48.82398183393,"bounds":[106.84924,-6.21065,106.84949,-6.21029]}},{"type":"Feature","geometry":{"type":"LineString","coordinates":[[106.84922,-6.21026],[106.84924,-6.21029]]},"properties":{"OBJECTID":175,"Shape__Length":4.0258186794737805,"bounds":[106.84922,-6.21029,106.84924,-6.21026]}},{"type":"Feature","geometry":{"type":"LineString","coordinates":[[106.84921,-6.21026],[106.84922,-6.21026]]},"properties":{"OBJECTID":176,"Shape__Length":1.19509279517988,"bounds":[106.84921,-6.21026,106.84922,-6.21026]}},{"type":"Feature","geometry":{"type":"LineString","coordinates":[[106.85417,-6.25755],[106.84825,-6.27083]]},"properties":{"OBJECTID":177,"Shape__Length":1608.96049096173,"bounds":[106.84825,-6.27083,106.85417,-6.25755]}},{"type":"Feature","geometry":{"type":"LineString","coordinates":[[106.85417,-6.25734],[106.84815,-6.27083]]},"properties":{"OBJECTID":178,"Shape__Length":1634.53060458254,"bounds":[106.84815,-6.27083,106.85417,-6.25734]}},{"type":"Feature","geometry":{"type":"LineString","coordinates":[[106.83814,-6.31249],[106.84002,-6.30146],[106.84034,-6.29763],[106.84065,-6.29582],[106.84125,-6.29389],[106.84257,-6.29073],[106.84404,-6.2869],[106.84448,-6.28518],[106.84483,-6.28266],[106.84501,-6.2817],[106.84526,-6.28084],[106.84632,-6.27534],[106.84695,-6.27354],[106.84815,-6.27083]]},"properties":{"OBJECTID":179,"Shape__Length":4765.279184739111,"bounds":[106.83814,-6.31249,106.84815,-6.27083]}},{"type":"Feature","geometry":{"type":"LineString","coordinates":[[106.83333,-6.18791],[106.83396,-6.1889],[106.84251,-6.20025],[106.847,-6.20638]]},"properties":{"OBJECTID":188,"Shape__Length":2542.32444714045,"bounds":[106.83333,-6.20638,106.847,-6.18791]}},{"type":"Feature","geometry":{"type":"MultiLineString","coordinates":[[[106.84356,-6.28844],[106.8413,-6.29396],[106.84089,-6.29521],[106.84065,-6.29618],[106.8404,-6.29769],[106.84009,-6.30147],[106.83822,-6.31249]],[[106.84468,-6.28451],[106.84494,-6.28356],[106.84515,-6.28246],[106.84533,-6.28085],[106.84591,-6.27755],[106.84634,-6.27557],[106.84705,-6.27349],[106.84825,-6.27083]]]},"properties":{"OBJECTID":180,"Shape__Length":4312.75330463895,"bounds":[106.83822,-6.31249,106.84825,-6.27083]}},{"type":"Feature","geometry":{"type":"LineString","coordinates":[[106.84468,-6.28451],[106.84467,-6.28456]]},"properties":{"OBJECTID":181,"Shape__Length":5.15703217364406,"bounds":[106.84467,-6.28456,106.84468,-6.28451]}},{"type":"Feature","geometry":{"type":"LineString","coordinates":[[106.84467,-6.28456],[106.84443,-6.28576],[106.84414,-6.28681],[106.84356,-6.28844]]},"properties":{"OBJECTID":182,"Shape__Length":448.27516762477,"bounds":[106.84356,-6.28844,106.84467,-6.28456]}},{"type":"Feature","geometry":{"type":"LineString","coordinates":[[106.85406,-6.19048],[106.85178,-6.1875]]},"properties":{"OBJECTID":183,"Shape__Length":415.509459372046,"bounds":[106.85178,-6.19048,106.85406,-6.1875]}},{"type":"Feature","geometry":{"type":"LineString","coordinates":[[106.85193,-6.1875],[106.85413,-6.19042]]},"properties":{"OBJECTID":184,"Shape__Length":404.94344893676,"bounds":[106.85193,-6.19042,106.85413,-6.1875]}},{"type":"Feature","geometry":{"type":"LineString","coordinates":[[106.83879,-6.20556],[106.84165,-6.2065],[106.84225,-6.20652],[106.84273,-6.20644],[106.84332,-6.20621],[106.84417,-6.20577],[106.84492,-6.20562],[106.84552,-6.20565],[106.8461,-6.20581],[106.84654,-6.20604],[106.84699,-6.20639]]},"properties":{"OBJECTID":185,"Shape__Length":966.2929530575971,"bounds":[106.83879,-6.20652,106.84699,-6.20556]}},{"type":"Feature","geometry":{"type":"LineString","coordinates":[[106.83868,-6.20552],[106.83738,-6.20507],[106.83415,-6.20457]]},"properties":{"OBJECTID":186,"Shape__Length":514.007266057618,"bounds":[106.83415,-6.20552,106.83868,-6.20457]}},{"type":"Feature","geometry":{"type":"LineString","coordinates":[[106.83393,-6.20454],[106.83333,-6.20445]]},"properties":{"OBJECTID":187,"Shape__Length":67.2692214544661,"bounds":[106.83333,-6.20454,106.83393,-6.20445]}},{"type":"Feature","geometry":{"type":"LineString","coordinates":[[106.83077,-6.13537],[106.83074,-6.1375]]},"properties":{"OBJECTID":74,"Shape__Length":235.888141245582,"bounds":[106.83074,-6.1375,106.83077,-6.13537]}},{"type":"Feature","geometry":{"type":"LineString","coordinates":[[106.83063,-6.1375],[106.83065,-6.1354]]},"properties":{"OBJECTID":75,"Shape__Length":232.56067275626202,"bounds":[106.83063,-6.1375,106.83065,-6.1354]}},{"type":"Feature","geometry":{"type":"LineString","coordinates":[[106.83077,-6.13537],[106.83067,-6.13457],[106.8304,-6.13397],[106.82985,-6.13327],[106.82917,-6.13272]]},"properties":{"OBJECTID":76,"Shape__Length":357.88806855753603,"bounds":[106.82917,-6.13537,106.83077,-6.13272]}},{"type":"Feature","geometry":{"type":"LineString","coordinates":[[106.84434,-6.12816],[106.84815,-6.12743],[106.85011,-6.12712],[106.85232,-6.12657],[106.85341,-6.12615],[106.85594,-6.125]]},"properties":{"OBJECTID":77,"Shape__Length":1338.60023489194,"bounds":[106.84434,-6.12816,106.85594,-6.125]}},{"type":"Feature","geometry":{"type":"LineString","coordinates":[[106.84538,-6.12816],[106.84449,-6.12855],[106.84401,-6.12889],[106.84357,-6.12932],[106.84324,-6.12981],[106.8429,-6.13054],[106.84015,-6.1375]]},"properties":{"OBJECTID":78,"Shape__Length":1223.3374403669202,"bounds":[106.84015,-6.1375,106.84538,-6.12816]}},{"type":"Feature","geometry":{"type":"LineString","coordinates":[[106.84004,-6.1375],[106.84287,-6.1304],[106.84323,-6.12966],[106.84362,-6.12913],[106.84417,-6.12864],[106.84467,-6.12831],[106.84534,-6.12809],[106.84418,-6.12829]]},"properties":{"OBJECTID":79,"Shape__Length":1365.69300930042,"bounds":[106.84004,-6.1375,106.84534,-6.12809]}},{"type":"Feature","geometry":{"type":"LineString","coordinates":[[106.84538,-6.12816],[106.84796,-6.12772],[106.85172,-6.12694],[106.85309,-6.12647],[106.85627,-6.125]]},"properties":{"OBJECTID":80,"Shape__Length":1263.80444900044,"bounds":[106.84538,-6.12816,106.85627,-6.125]}},{"type":"Feature","geometry":{"type":"LineString","coordinates":[[106.8447,-6.17533],[106.84425,-6.17414],[106.8441,-6.1742],[106.84383,-6.17349],[106.84358,-6.17271],[106.84334,-6.17149],[106.84312,-6.17083]]},"properties":{"OBJECTID":81,"Shape__Length":547.533839765588,"bounds":[106.84312,-6.17533,106.8447,-6.17083]}},{"type":"Feature","geometry":{"type":"LineString","coordinates":[[106.85178,-6.1875],[106.84662,-6.18054],[106.84629,-6.17978],[106.84553,-6.17702],[106.8447,-6.17533]]},"properties":{"OBJECTID":82,"Shape__Length":1575.3580420004403,"bounds":[106.8447,-6.1875,106.85178,-6.17533]}},{"type":"Feature","geometry":{"type":"LineString","coordinates":[[106.85193,-6.1875],[106.84696,-6.18088],[106.84664,-6.18034],[106.84506,-6.17512],[106.8437,-6.1717],[106.84369,-6.17153],[106.84355,-6.17154],[106.8433,-6.17083]]},"properties":{"OBJECTID":83,"Shape__Length":2114.0613984064403,"bounds":[106.8433,-6.1875,106.85193,-6.17083]}},{"type":"Feature","geometry":{"type":"MultiLineString","coordinates":[[[106.83011,-6.1652],[106.83033,-6.16592],[106.83044,-6.16667]],[[106.83011,-6.1652],[106.82975,-6.16441],[106.82836,-6.1624],[106.82781,-6.16134],[106.82747,-6.15994],[106.82741,-6.15833]]]},"properties":{"OBJECTID":84,"Shape__Length":1003.22587229932,"bounds":[106.82741,-6.16667,106.83044,-6.15833]}},{"type":"Feature","geometry":{"type":"LineString","coordinates":[[106.83052,-6.16667],[106.83035,-6.16571],[106.83002,-6.16478],[106.82977,-6.1643],[106.82821,-6.16202],[106.82789,-6.16133],[106.82757,-6.16009],[106.82749,-6.15833]]},"properties":{"OBJECTID":85,"Shape__Length":1003.1278382222101,"bounds":[106.82749,-6.16667,106.83052,-6.15833]}},{"type":"Feature","geometry":{"type":"LineString","coordinates":[[106.83038,-6.16667],[106.83032,-6.16611],[106.83006,-6.16521],[106.83011,-6.1652]]},"properties":{"OBJECTID":86,"Shape__Length":170.446291447178,"bounds":[106.83006,-6.16667,106.83038,-6.1652]}},{"type":"Feature","geometry":{"type":"LineString","coordinates":[[106.83018,-6.16517],[106.83024,-6.16515],[106.83044,-6.16578],[106.83056,-6.16667]]},"properties":{"OBJECTID":87,"Shape__Length":179.63848709090902,"bounds":[106.83018,-6.16667,106.83056,-6.16515]}},{"type":"Feature","geometry":{"type":"LineString","coordinates":[[106.82803,-6.16183],[106.82799,-6.16185],[106.82782,-6.1615],[106.82758,-6.16078],[106.82744,-6.16009],[106.82739,-6.15944]]},"properties":{"OBJECTID":88,"Shape__Length":282.260313097987,"bounds":[106.82739,-6.16185,106.82803,-6.15944]}},{"type":"Feature","geometry":{"type":"LineString","coordinates":[[106.82739,-6.15944],[106.82744,-6.15944]]},"properties":{"OBJECTID":89,"Shape__Length":5.2992163137581,"bounds":[106.82739,-6.15944,106.82744,-6.15944]}},{"type":"Feature","geometry":{"type":"LineString","coordinates":[[106.82752,-6.15943],[106.82757,-6.15943],[106.82763,-6.16019],[106.82777,-6.16079],[106.82815,-6.16177],[106.8281,-6.16179]]},"properties":{"OBJECTID":90,"Shape__Length":279.624758489904,"bounds":[106.82752,-6.16179,106.82815,-6.15943]}},{"type":"Feature","geometry":{"type":"LineString","coordinates":[[106.84312,-6.17083],[106.843,-6.17022],[106.84301,-6.16864],[106.84315,-6.16864],[106.84314,-6.16978],[106.8433,-6.17083]]},"properties":{"OBJECTID":91,"Shape__Length":504.75834437598,"bounds":[106.843,-6.17083,106.8433,-6.16864]}},{"type":"Feature","geometry":{"type":"LineString","coordinates":[[106.84303,-6.16852],[106.84299,-6.16745],[106.84283,-6.16667]]},"properties":{"OBJECTID":92,"Shape__Length":206.672436564967,"bounds":[106.84283,-6.16852,106.84303,-6.16667]}},{"type":"Feature","geometry":{"type":"LineString","coordinates":[[106.84294,-6.16667],[106.84314,-6.16775],[106.84315,-6.16852],[106.84303,-6.16852]]},"properties":{"OBJECTID":93,"Shape__Length":220.433785270972,"bounds":[106.84294,-6.16852,106.84315,-6.16667]}},{"type":"Feature","geometry":{"type":"LineString","coordinates":[[106.84283,-6.16667],[106.84217,-6.16413],[106.84167,-6.1625]]},"properties":{"OBJECTID":94,"Shape__Length":478.51775330339905,"bounds":[106.84167,-6.16667,106.84283,-6.1625]}},{"type":"Feature","geometry":{"type":"LineString","coordinates":[[106.84185,-6.1625],[106.84294,-6.16667]]},"properties":{"OBJECTID":95,"Shape__Length":476.631120820719,"bounds":[106.84185,-6.16667,106.84294,-6.1625]}},{"type":"Feature","geometry":{"type":"LineString","coordinates":[[106.68793,-6.16847],[106.70066,-6.16645],[106.70388,-6.16586],[106.7055,-6.16565],[106.7086,-6.16509],[106.71512,-6.16404],[106.725,-6.16229]]},"properties":{"OBJECTID":96,"Shape__Length":4166.90192093578,"bounds":[106.68793,-6.16847,106.725,-6.16229]}},{"type":"Feature","geometry":{"type":"LineString","coordinates":[[106.68793,-6.16857],[106.70329,-6.16611],[106.71895,-6.16344],[106.72242,-6.16291],[106.725,-6.16243]]},"properties":{"OBJECTID":97,"Shape__Length":4166.9319017487105,"bounds":[106.68793,-6.16857,106.725,-6.16243]}},{"type":"Feature","geometry":{"type":"LineString","coordinates":[[106.68793,-6.16847],[106.68793,-6.16857]]},"properties":{"OBJECTID":98,"Shape__Length":11.371288547841699,"bounds":[106.68793,-6.16857,106.68793,-6.16847]}},{"type":"Feature","geometry":{"type":"LineString","coordinates":[[106.79583,-6.16216],[106.7962,-6.1621],[106.79716,-6.16179],[106.80019,-6.16047],[106.80067,-6.16009],[106.80105,-6.15955],[106.80126,-6.15897],[106.80132,-6.15833]]},"properties":{"OBJECTID":101,"Shape__Length":798.919393766719,"bounds":[106.79583,-6.16216,106.80132,-6.15833]}},{"type":"Feature","geometry":{"type":"LineString","coordinates":[[106.79583,-6.16227],[106.7965,-6.16213],[106.79729,-6.16186],[106.79929,-6.16102],[106.80034,-6.1605],[106.80071,-6.1602],[106.80116,-6.15957],[106.80133,-6.15917],[106.80143,-6.15846],[106.80151,-6.15892],[106.80191,-6.16615]]},"properties":{"OBJECTID":102,"Shape__Length":1656.61370383503,"bounds":[106.79583,-6.16615,106.80191,-6.15846]}},{"type":"Feature","geometry":{"type":"LineString","coordinates":[[106.80193,-6.16667],[106.80191,-6.16615]]},"properties":{"OBJECTID":103,"Shape__Length":56.8987843300716,"bounds":[106.80191,-6.16667,106.80193,-6.16615]}},{"type":"Feature","geometry":{"type":"LineString","coordinates":[[106.80203,-6.16666],[106.80201,-6.16615]]},"properties":{"OBJECTID":104,"Shape__Length":56.370491499099096,"bounds":[106.80201,-6.16666,106.80203,-6.16615]}},{"type":"Feature","geometry":{"type":"LineString","coordinates":[[106.80199,-6.1659],[106.80155,-6.15833]]},"properties":{"OBJECTID":105,"Shape__Length":838.867133395021,"bounds":[106.80155,-6.1659,106.80199,-6.15833]}},{"type":"Feature","geometry":{"type":"LineString","coordinates":[[106.80155,-6.15833],[106.80092,-6.14747],[106.80088,-6.14583]]},"properties":{"OBJECTID":106,"Shape__Length":1384.7949283827202,"bounds":[106.80088,-6.15833,106.80155,-6.14583]}},{"type":"Feature","geometry":{"type":"LineString","coordinates":[[106.80132,-6.15833],[106.80117,-6.15708],[106.80122,-6.15672],[106.80119,-6.15588],[106.80109,-6.15554],[106.80103,-6.15488],[106.80117,-6.15405],[106.80092,-6.14897],[106.8007,-6.14583]]},"properties":{"OBJECTID":107,"Shape__Length":1390.31348004451,"bounds":[106.8007,-6.15833,106.80132,-6.14583]}},{"type":"Feature","geometry":{"type":"LineString","coordinates":[[106.80201,-6.16615],[106.80199,-6.1659]]},"properties":{"OBJECTID":108,"Shape__Length":27.663861654693097,"bounds":[106.80199,-6.16615,106.80201,-6.1659]}},{"type":"Feature","geometry":{"type":"LineString","coordinates":[[106.79583,-6.16216],[106.79525,-6.16224],[106.79444,-6.16225],[106.79064,-6.1621]]},"properties":{"OBJECTID":109,"Shape__Length":575.863584551852,"bounds":[106.79064,-6.16225,106.79583,-6.1621]}},{"type":"Feature","geometry":{"type":"LineString","coordinates":[[106.79583,-6.16227],[106.7946,-6.16235],[106.7906,-6.1622]]},"properties":{"OBJECTID":110,"Shape__Length":580.582846996519,"bounds":[106.7906,-6.16235,106.79583,-6.1622]}},{"type":"Feature","geometry":{"type":"LineString","coordinates":[[106.79064,-6.1621],[106.7857,-6.16191]]},"properties":{"OBJECTID":111,"Shape__Length":547.463111941791,"bounds":[106.7857,-6.1621,106.79064,-6.16191]}},{"type":"Feature","geometry":{"type":"LineString","coordinates":[[106.78571,-6.16199],[106.7906,-6.1622]]},"properties":{"OBJECTID":112,"Shape__Length":541.886436667779,"bounds":[106.78571,-6.1622,106.7906,-6.16199]}},{"type":"Feature","geometry":{"type":"LineString","coordinates":[[106.7857,-6.16191],[106.78319,-6.16182]]},"properties":{"OBJECTID":113,"Shape__Length":277.601146936235,"bounds":[106.78319,-6.16191,106.7857,-6.16182]}},{"type":"Feature","geometry":{"type":"LineString","coordinates":[[106.78571,-6.16199],[106.78276,-6.16188]]},"properties":{"OBJECTID":114,"Shape__Length":326.743883359469,"bounds":[106.78276,-6.16199,106.78571,-6.16188]}},{"type":"Feature","geometry":{"type":"LineString","coordinates":[[106.78319,-6.16182],[106.77902,-6.16166]]},"properties":{"OBJECTID":115,"Shape__Length":461.55817707051,"bounds":[106.77902,-6.16182,106.78319,-6.16166]}},{"type":"Feature","geometry":{"type":"LineString","coordinates":[[106.77908,-6.16173],[106.78276,-6.16188]]},"properties":{"OBJECTID":116,"Shape__Length":406.919870106363,"bounds":[106.77908,-6.16188,106.78276,-6.16173]}},{"type":"Feature","geometry":{"type":"LineString","coordinates":[[106.77902,-6.16166],[106.77355,-6.16144],[106.76426,-6.16013],[106.7625,-6.15981]]},"properties":{"OBJECTID":117,"Shape__Length":1843.2296244619902,"bounds":[106.7625,-6.16166,106.77902,-6.15981]}},{"type":"Feature","geometry":{"type":"LineString","coordinates":[[106.77908,-6.16173],[106.77353,-6.16151],[106.76622,-6.1605]]},"properties":{"OBJECTID":118,"Shape__Length":1431.4115430308,"bounds":[106.76622,-6.16173,106.77908,-6.1605]}},{"type":"Feature","geometry":{"type":"LineString","coordinates":[[106.76622,-6.1605],[106.7625,-6.15989]]},"properties":{"OBJECTID":119,"Shape__Length":417.971658763847,"bounds":[106.7625,-6.1605,106.76622,-6.15989]}},{"type":"Feature","geometry":{"type":"LineString","coordinates":[[106.80057,-6.14372],[106.80019,-6.13639]]},"properties":{"OBJECTID":120,"Shape__Length":811.8187967127091,"bounds":[106.80019,-6.14372,106.80057,-6.13639]}},{"type":"Feature","geometry":{"type":"LineString","coordinates":[[106.8007,-6.14583],[106.80057,-6.14372]]},"properties":{"OBJECTID":121,"Shape__Length":234.030400316741,"bounds":[106.80057,-6.14583,106.8007,-6.14372]}},{"type":"Feature","geometry":{"type":"LineString","coordinates":[[106.80019,-6.13639],[106.80021,-6.13543],[106.80046,-6.13461],[106.80093,-6.13387],[106.8015,-6.13333]]},"properties":{"OBJECTID":122,"Shape__Length":386.066742187092,"bounds":[106.80019,-6.13639,106.8015,-6.13333]}},{"type":"Feature","geometry":{"type":"LineString","coordinates":[[106.80088,-6.14583],[106.80033,-6.13679]]},"properties":{"OBJECTID":123,"Shape__Length":1001.83374095933,"bounds":[106.80033,-6.14583,106.80088,-6.13679]}},{"type":"Feature","geometry":{"type":"LineString","coordinates":[[106.80033,-6.13679],[106.80027,-6.13579],[106.80044,-6.13489],[106.80066,-6.13442],[106.80099,-6.13394],[106.80165,-6.13333]]},"properties":{"OBJECTID":124,"Shape__Length":434.36878320555206,"bounds":[106.80027,-6.13679,106.80165,-6.13333]}},{"type":"Feature","geometry":{"type":"LineString","coordinates":[[106.7625,-6.15989],[106.75899,-6.15921],[106.75379,-6.1581],[106.75275,-6.15798],[106.75203,-6.15798],[106.73979,-6.15898],[106.73914,-6.15911],[106.73823,-6.1594],[106.73616,-6.16027],[106.73538,-6.16053],[106.73333,-6.16093]]},"properties":{"OBJECTID":125,"Shape__Length":3289.43712638243,"bounds":[106.73333,-6.16093,106.7625,-6.15798]}},{"type":"Feature","geometry":{"type":"LineString","coordinates":[[106.7625,-6.15981],[106.75414,-6.15807],[106.75228,-6.15789],[106.74743,-6.15821],[106.74501,-6.15848],[106.73963,-6.15892],[106.73828,-6.15929],[106.73538,-6.16043],[106.73333,-6.16084]]},"properties":{"OBJECTID":126,"Shape__Length":3288.90283229066,"bounds":[106.73333,-6.16084,106.7625,-6.15789]}},{"type":"Feature","geometry":{"type":"LineString","coordinates":[[106.81251,-6.13028],[106.80262,-6.13282],[106.80194,-6.13307],[106.8015,-6.13333]]},"properties":{"OBJECTID":127,"Shape__Length":1266.64615303056,"bounds":[106.8015,-6.13333,106.81251,-6.13028]}},{"type":"Feature","geometry":{"type":"LineString","coordinates":[[106.80514,-6.13224],[106.80264,-6.13288],[106.80217,-6.13304],[106.80165,-6.13333]]},"properties":{"OBJECTID":128,"Shape__Length":406.352410428151,"bounds":[106.80165,-6.13333,106.80514,-6.13224]}},{"type":"Feature","geometry":{"type":"LineString","coordinates":[[106.80514,-6.13224],[106.81253,-6.13034]]},"properties":{"OBJECTID":129,"Shape__Length":845.111034154814,"bounds":[106.80514,-6.13224,106.81253,-6.13034]}},{"type":"Feature","geometry":{"type":"LineString","coordinates":[[106.83814,-6.31249],[106.83742,-6.31668]]},"properties":{"OBJECTID":130,"Shape__Length":470.93508411452,"bounds":[106.83742,-6.31668,106.83814,-6.31249]}},{"type":"Feature","geometry":{"type":"LineString","coordinates":[[106.83822,-6.31249],[106.83749,-6.3167]]},"properties":{"OBJECTID":131,"Shape__Length":472.88219686842706,"bounds":[106.83749,-6.3167,106.83822,-6.31249]}},{"type":"Feature","geometry":{"type":"LineString","coordinates":[[106.83749,-6.3167],[106.83731,-6.31775]]},"properties":{"OBJECTID":132,"Shape__Length":117.62442046195201,"bounds":[106.83731,-6.31775,106.83749,-6.3167]}},{"type":"Feature","geometry":{"type":"LineString","coordinates":[[106.83692,-6.3195],[106.83652,-6.32086]]},"properties":{"OBJECTID":133,"Shape__Length":156.35490279994002,"bounds":[106.83652,-6.32086,106.83692,-6.3195]}},{"type":"Feature","geometry":{"type":"LineString","coordinates":[[106.83724,-6.31774],[106.83692,-6.3195]]},"properties":{"OBJECTID":134,"Shape__Length":198.469289994494,"bounds":[106.83692,-6.3195,106.83724,-6.31774]}},{"type":"Feature","geometry":{"type":"LineString","coordinates":[[106.83652,-6.32086],[106.83602,-6.32198],[106.83408,-6.32496],[106.83381,-6.32568],[106.83366,-6.32634],[106.83361,-6.3271],[106.83365,-6.32774]]},"properties":{"OBJECTID":135,"Shape__Length":845.109089257504,"bounds":[106.83361,-6.32774,106.83652,-6.32086]}},{"type":"Feature","geometry":{"type":"LineString","coordinates":[[106.83365,-6.32774],[106.83386,-6.32866],[106.83496,-6.33104]]},"properties":{"OBJECTID":136,"Shape__Length":394.229373896222,"bounds":[106.83365,-6.33104,106.83496,-6.32774]}},{"type":"Feature","geometry":{"type":"LineString","coordinates":[[106.83374,-6.32774],[106.83381,-6.32818],[106.83401,-6.3288],[106.83505,-6.33101]]},"properties":{"OBJECTID":137,"Shape__Length":391.67382024603205,"bounds":[106.83374,-6.33101,106.83505,-6.32774]}},{"type":"Feature","geometry":{"type":"LineString","coordinates":[[106.83647,-6.32124],[106.83585,-6.32245],[106.83419,-6.32495],[106.83389,-6.32572],[106.83375,-6.32636],[106.8337,-6.32709],[106.83374,-6.32774]]},"properties":{"OBJECTID":138,"Shape__Length":799.187770059142,"bounds":[106.8337,-6.32774,106.83647,-6.32124]}},{"type":"Feature","geometry":{"type":"LineString","coordinates":[[106.8366,-6.32092],[106.83647,-6.32124]]},"properties":{"OBJECTID":139,"Shape__Length":38.005162228570995,"bounds":[106.83647,-6.32124,106.8366,-6.32092]}},{"type":"Feature","geometry":{"type":"LineString","coordinates":[[106.83742,-6.31668],[106.83724,-6.31774]]},"properties":{"OBJECTID":140,"Shape__Length":118.12324191559401,"bounds":[106.83724,-6.31774,106.83742,-6.31668]}},{"type":"Feature","geometry":{"type":"LineString","coordinates":[[106.83731,-6.31775],[106.83701,-6.31951]]},"properties":{"OBJECTID":141,"Shape__Length":197.91992422154902,"bounds":[106.83701,-6.31951,106.83731,-6.31775]}},{"type":"Feature","geometry":{"type":"LineString","coordinates":[[106.83701,-6.31951],[106.83675,-6.32047]]},"properties":{"OBJECTID":142,"Shape__Length":109.85056807826201,"bounds":[106.83675,-6.32047,106.83701,-6.31951]}},{"type":"Feature","geometry":{"type":"LineString","coordinates":[[106.83675,-6.32047],[106.8366,-6.32092]]},"properties":{"OBJECTID":143,"Shape__Length":52.5232153093374,"bounds":[106.8366,-6.32092,106.83675,-6.32047]}},{"type":"Feature","geometry":{"type":"LineString","coordinates":[[106.83391,-6.34095],[106.83368,-6.34201],[106.83338,-6.34416]]},"properties":{"OBJECTID":144,"Shape__Length":361.00125436224704,"bounds":[106.83338,-6.34416,106.83391,-6.34095]}},{"type":"Feature","geometry":{"type":"LineString","coordinates":[[106.83338,-6.34416],[106.83336,-6.3443]]},"properties":{"OBJECTID":145,"Shape__Length":14.8652160848741,"bounds":[106.83336,-6.3443,106.83338,-6.34416]}},{"type":"Feature","geometry":{"type":"LineString","coordinates":[[106.83551,-6.33333],[106.83546,-6.33429],[106.83532,-6.33509],[106.83393,-6.34086]]},"properties":{"OBJECTID":146,"Shape__Length":853.1512289428861,"bounds":[106.83393,-6.34086,106.83551,-6.33333]}},{"type":"Feature","geometry":{"type":"LineString","coordinates":[[106.83393,-6.34086],[106.83391,-6.34095]]},"properties":{"OBJECTID":147,"Shape__Length":9.54921557249599,"bounds":[106.83391,-6.34095,106.83393,-6.34086]}},{"type":"Feature","geometry":{"type":"LineString","coordinates":[[106.83373,-6.34131],[106.8333,-6.34401]]},"properties":{"OBJECTID":148,"Shape__Length":302.274194848902,"bounds":[106.8333,-6.34401,106.83373,-6.34131]}},{"type":"Feature","geometry":{"type":"LineString","coordinates":[[106.83385,-6.34075],[106.83373,-6.34131]]},"properties":{"OBJECTID":149,"Shape__Length":63.228437566731,"bounds":[106.83373,-6.34131,106.83385,-6.34075]}},{"type":"Feature","geometry":{"type":"LineString","coordinates":[[106.83541,-6.33333],[106.8354,-6.33403],[106.83528,-6.33485],[106.83388,-6.34068]]},"properties":{"OBJECTID":150,"Shape__Length":831.527854131442,"bounds":[106.83388,-6.34068,106.83541,-6.33333]}},{"type":"Feature","geometry":{"type":"LineString","coordinates":[[106.83388,-6.34068],[106.83385,-6.34075]]},"properties":{"OBJECTID":151,"Shape__Length":9.34850995256245,"bounds":[106.83385,-6.34075,106.83388,-6.34068]}},{"type":"Feature","geometry":{"type":"LineString","coordinates":[[106.83496,-6.33104],[106.8353,-6.33223],[106.83541,-6.33333]]},"properties":{"OBJECTID":152,"Shape__Length":260.1900963316,"bounds":[106.83496,-6.33333,106.83541,-6.33104]}},{"type":"Feature","geometry":{"type":"LineString","coordinates":[[106.83505,-6.33101],[106.83539,-6.33221],[106.83551,-6.33333]]},"properties":{"OBJECTID":153,"Shape__Length":262.924044297858,"bounds":[106.83505,-6.33333,106.83551,-6.33101]}},{"type":"Feature","geometry":{"type":"LineString","coordinates":[[106.8333,-6.34401],[106.83326,-6.34437]]},"properties":{"OBJECTID":154,"Shape__Length":40.0543423609638,"bounds":[106.83326,-6.34437,106.8333,-6.34401]}},{"type":"Feature","geometry":{"type":"LineString","coordinates":[[106.83326,-6.345],[106.83336,-6.3443]]},"properties":{"OBJECTID":155,"Shape__Length":78.4148645317667,"bounds":[106.83326,-6.345,106.83336,-6.3443]}},{"type":"Feature","geometry":{"type":"LineString","coordinates":[[106.83326,-6.34437],[106.83194,-6.3541]]},"properties":{"OBJECTID":156,"Shape__Length":1085.85871246494,"bounds":[106.83194,-6.3541,106.83326,-6.34437]}},{"type":"Feature","geometry":{"type":"LineString","coordinates":[[106.83326,-6.345],[106.83202,-6.3541]]},"properties":{"OBJECTID":157,"Shape__Length":1015.79790365643,"bounds":[106.83202,-6.3541,106.83326,-6.345]}},{"type":"Feature","geometry":{"type":"LineString","coordinates":[[106.83202,-6.3541],[106.83184,-6.35556]]},"properties":{"OBJECTID":158,"Shape__Length":162.66844873253,"bounds":[106.83184,-6.35556,106.83202,-6.3541]}},{"type":"Feature","geometry":{"type":"LineString","coordinates":[[106.83183,-6.35569],[106.83178,-6.3561]]},"properties":{"OBJECTID":159,"Shape__Length":46.0004404508137,"bounds":[106.83178,-6.3561,106.83183,-6.35569]}},{"type":"Feature","geometry":{"type":"LineString","coordinates":[[106.83184,-6.35556],[106.83183,-6.35569]]},"properties":{"OBJECTID":160,"Shape__Length":14.636172004382301,"bounds":[106.83183,-6.35569,106.83184,-6.35556]}},{"type":"Feature","geometry":{"type":"LineString","coordinates":[[106.83194,-6.3541],[106.83173,-6.35557]]},"properties":{"OBJECTID":161,"Shape__Length":164.224810558205,"bounds":[106.83173,-6.35557,106.83194,-6.3541]}},{"type":"Feature","geometry":{"type":"LineString","coordinates":[[106.83171,-6.35573],[106.83165,-6.35612]]},"properties":{"OBJECTID":162,"Shape__Length":43.6523074040766,"bounds":[106.83165,-6.35612,106.83171,-6.35573]}},{"type":"Feature","geometry":{"type":"LineString","coordinates":[[106.83173,-6.35557],[106.83171,-6.35573]]},"properties":{"OBJECTID":163,"Shape__Length":17.7014969615736,"bounds":[106.83171,-6.35573,106.83173,-6.35557]}},{"type":"Feature","geometry":{"type":"LineString","coordinates":[[106.84927,-6.21383],[106.84936,-6.21082],[106.84909,-6.21003],[106.8483,-6.20833]]},"properties":{"OBJECTID":164,"Shape__Length":632.338830949208,"bounds":[106.8483,-6.21383,106.84936,-6.20833]}},{"type":"Feature","geometry":{"type":"LineString","coordinates":[[106.80193,-6.16667],[106.80211,-6.16768],[106.80254,-6.16864],[106.80915,-6.17819],[106.80995,-6.17941],[106.81013,-6.17988],[106.81095,-6.18882],[106.81001,-6.19243],[106.80993,-6.19294],[106.80996,-6.19404],[106.81039,-6.19632],[106.81033,-6.19707],[106.81009,-6.19772]]},"properties":{"OBJECTID":194,"Shape__Length":3734.69593205298,"bounds":[106.80193,-6.19772,106.81095,-6.16667]}},{"type":"Feature","geometry":{"type":"LineString","coordinates":[[106.80203,-6.16666],[106.80218,-6.16757],[106.80256,-6.16849],[106.80964,-6.17873],[106.81016,-6.1796],[106.81037,-6.18051],[106.81069,-6.18351],[106.81093,-6.18493],[106.81117,-6.1875]]},"properties":{"OBJECTID":195,"Shape__Length":2584.1900922825803,"bounds":[106.80203,-6.1875,106.81117,-6.16666]}},{"type":"Feature","geometry":{"type":"LineString","coordinates":[[106.81117,-6.1875],[106.81121,-6.18843],[106.81105,-6.18947],[106.8103,-6.19239],[106.8103,-6.1931],[106.81047,-6.19473],[106.81064,-6.19528],[106.81214,-6.1988],[106.8125,-6.19937]]},"properties":{"OBJECTID":196,"Shape__Length":1375.96782922438,"bounds":[106.8103,-6.19937,106.8125,-6.1875]}},{"type":"Feature","geometry":{"type":"LineString","coordinates":[[106.80961,-6.19838],[106.80786,-6.2004],[106.80706,-6.20106],[106.80647,-6.20139],[106.79953,-6.20459],[106.79884,-6.20502],[106.79848,-6.20537],[106.79818,-6.2058],[106.79699,-6.20834]]},"properties":{"OBJECTID":197,"Shape__Length":1845.62817954514,"bounds":[106.79699,-6.20834,106.80961,-6.19838]}},{"type":"Feature","geometry":{"type":"LineString","coordinates":[[106.81019,-6.19226],[106.81016,-6.193],[106.81035,-6.19455],[106.81048,-6.19507],[106.81201,-6.19879],[106.8125,-6.19956]]},"properties":{"OBJECTID":198,"Shape__Length":860.6867804829641,"bounds":[106.81016,-6.19956,106.8125,-6.19226]}},{"type":"Feature","geometry":{"type":"LineString","coordinates":[[106.81007,-6.19803],[106.80793,-6.20047],[106.80711,-6.20114],[106.80637,-6.20154],[106.80112,-6.20396]]},"properties":{"OBJECTID":199,"Shape__Length":1209.8417277844899,"bounds":[106.80112,-6.20396,106.81007,-6.19803]}},{"type":"Feature","geometry":{"type":"LineString","coordinates":[[106.81009,-6.19772],[106.80961,-6.19838]]},"properties":{"OBJECTID":200,"Shape__Length":90.4428852092199,"bounds":[106.80961,-6.19838,106.81009,-6.19772]}},{"type":"Feature","geometry":{"type":"LineString","coordinates":[[106.83333,-6.20455],[106.83702,-6.20511],[106.84107,-6.20646],[106.84172,-6.2066],[106.8424,-6.20659],[106.84281,-6.20651],[106.84399,-6.20594],[106.84463,-6.20575],[106.84529,-6.20572],[106.84573,-6.2058],[106.84632,-6.20608],[106.8469,-6.20651],[106.84749,-6.20719],[106.8483,-6.20833]]},"properties":{"OBJECTID":189,"Shape__Length":1830.34505206535,"bounds":[106.83333,-6.20833,106.8483,-6.20455]}},{"type":"Feature","geometry":{"type":"LineString","coordinates":[[106.83393,-6.20454],[106.83415,-6.20457]]},"properties":{"OBJECTID":190,"Shape__Length":23.7723547951529,"bounds":[106.83393,-6.20457,106.83415,-6.20454]}},{"type":"Feature","geometry":{"type":"LineString","coordinates":[[106.83868,-6.20552],[106.83879,-6.20556]]},"properties":{"OBJECTID":191,"Shape__Length":12.8314341343041,"bounds":[106.83868,-6.20556,106.83879,-6.20552]}},{"type":"Feature","geometry":{"type":"LineString","coordinates":[[106.83333,-6.18772],[106.83381,-6.18853],[106.83442,-6.18937],[106.84376,-6.20177],[106.84714,-6.20644],[106.84864,-6.20833]]},"properties":{"OBJECTID":192,"Shape__Length":2841.66134730291,"bounds":[106.83333,-6.20833,106.84864,-6.18772]}},{"type":"Feature","geometry":{"type":"LineString","coordinates":[[106.84699,-6.20639],[106.847,-6.20638]]},"properties":{"OBJECTID":193,"Shape__Length":1.4461490013384999,"bounds":[106.84699,-6.20639,106.847,-6.20638]}},{"type":"Feature","geometry":{"type":"LineString","coordinates":[[106.82897,-6.1328],[106.8296,-6.13315],[106.83025,-6.13393],[106.83044,-6.13425],[106.83061,-6.13479],[106.83065,-6.1354]]},"properties":{"OBJECTID":249,"Shape__Length":364.082945816039,"bounds":[106.82897,-6.1354,106.83065,-6.1328]}},{"type":"Feature","geometry":{"type":"LineString","coordinates":[[106.8215,-6.13541],[106.8223,-6.13489],[106.82288,-6.13463],[106.82778,-6.13323],[106.82897,-6.1328]]},"properties":{"OBJECTID":250,"Shape__Length":880.553254884961,"bounds":[106.8215,-6.13541,106.82897,-6.1328]}},{"type":"Feature","geometry":{"type":"LineString","coordinates":[[106.82884,-6.13275],[106.82897,-6.1328]]},"properties":{"OBJECTID":251,"Shape__Length":16.170456680316697,"bounds":[106.82884,-6.1328,106.82897,-6.13275]}},{"type":"Feature","geometry":{"type":"LineString","coordinates":[[106.81933,-6.1362],[106.81997,-6.13604],[106.82047,-6.13584],[106.82189,-6.13501],[106.82299,-6.13453],[106.8279,-6.13311],[106.82884,-6.13275]]},"properties":{"OBJECTID":252,"Shape__Length":1124.87247979205,"bounds":[106.81933,-6.1362,106.82884,-6.13275]}},{"type":"Feature","geometry":{"type":"LineString","coordinates":[[106.82897,-6.1328],[106.82917,-6.13272]]},"properties":{"OBJECTID":253,"Shape__Length":23.0693338410264,"bounds":[106.82897,-6.1328,106.82917,-6.13272]}},{"type":"Feature","geometry":{"type":"LineString","coordinates":[[106.82917,-6.13272],[106.82908,-6.13265]]},"properties":{"OBJECTID":254,"Shape__Length":12.6674267821054,"bounds":[106.82908,-6.13272,106.82917,-6.13265]}},{"type":"Feature","geometry":{"type":"LineString","coordinates":[[106.82654,-6.13385],[106.82649,-6.1338],[106.82493,-6.13437],[106.82489,-6.13426],[106.82293,-6.13477],[106.82154,-6.13546],[106.8215,-6.13541]]},"properties":{"OBJECTID":255,"Shape__Length":608.185754501653,"bounds":[106.8215,-6.13546,106.82654,-6.1338]}},{"type":"Feature","geometry":{"type":"LineString","coordinates":[[106.81594,-6.13681],[106.81463,-6.13718],[106.81487,-6.13788]]},"properties":{"OBJECTID":256,"Shape__Length":232.396102205937,"bounds":[106.81463,-6.13788,106.81594,-6.13681]}},{"type":"Feature","geometry":{"type":"LineString","coordinates":[[106.95644,-6.21954],[106.95635,-6.21966]]},"properties":{"OBJECTID":257,"Shape__Length":16.6786996018874,"bounds":[106.95635,-6.21966,106.95644,-6.21954]}},{"type":"Feature","geometry":{"type":"LineString","coordinates":[[106.86943,-6.21471],[106.86936,-6.21479],[106.8681,-6.21481],[106.86749,-6.21472],[106.86712,-6.21454],[106.86681,-6.21428],[106.86699,-6.21413],[106.86602,-6.21353],[106.86556,-6.21308],[106.86551,-6.21311],[106.86622,-6.21389],[106.86616,-6.21394]]},"properties":{"OBJECTID":258,"Shape__Length":665.9445952063911,"bounds":[106.86551,-6.21481,106.86943,-6.21308]}},{"type":"Feature","geometry":{"type":"LineString","coordinates":[[106.86297,-6.21684],[106.86287,-6.21672]]},"properties":{"OBJECTID":259,"Shape__Length":19.5900422665197,"bounds":[106.86287,-6.21684,106.86297,-6.21672]}},{"type":"Feature","geometry":{"type":"LineString","coordinates":[[106.84942,-6.21384],[106.84927,-6.21383]]},"properties":{"OBJECTID":260,"Shape__Length":17.228950533912396,"bounds":[106.84927,-6.21384,106.84942,-6.21383]}},{"type":"Feature","geometry":{"type":"LineString","coordinates":[[106.85107,-6.21288],[106.85153,-6.21346],[106.85139,-6.21354],[106.85163,-6.2139],[106.85166,-6.21501],[106.85055,-6.21501],[106.85058,-6.21388],[106.85015,-6.21388],[106.85014,-6.21366],[106.84977,-6.21366],[106.84969,-6.21705],[106.84967,-6.21544],[106.84955,-6.21503],[106.84958,-6.21281]]},"properties":{"OBJECTID":261,"Shape__Length":1478.6250595759002,"bounds":[106.84955,-6.21705,106.85166,-6.21281]}},{"type":"Feature","geometry":{"type":"LineString","coordinates":[[106.75256,-6.26957],[106.75254,-6.26948]]},"properties":{"OBJECTID":262,"Shape__Length":10.5609455395812,"bounds":[106.75254,-6.26957,106.75256,-6.26948]}},{"type":"Feature","geometry":{"type":"LineString","coordinates":[[106.83165,-6.35612],[106.83178,-6.3561]]},"properties":{"OBJECTID":263,"Shape__Length":14.0599095391827,"bounds":[106.83165,-6.35612,106.83178,-6.3561]}},{"type":"Feature","geometry":{"type":"LineString","coordinates":[[106.82986,-6.17083],[106.83034,-6.16904],[106.83043,-6.16816],[106.83043,-6.1673]]},"properties":{"OBJECTID":219,"Shape__Length":398.202913977349,"bounds":[106.82986,-6.17083,106.83043,-6.1673]}},{"type":"Feature","geometry":{"type":"LineString","coordinates":[[106.83154,-6.17917],[106.83127,-6.17843],[106.83095,-6.17717],[106.83027,-6.175]]},"properties":{"OBJECTID":220,"Shape__Length":482.004041018091,"bounds":[106.83027,-6.17917,106.83154,-6.175]}},{"type":"Feature","geometry":{"type":"LineString","coordinates":[[106.83027,-6.175],[106.82993,-6.17363],[106.82978,-6.17269],[106.82978,-6.17179],[106.82995,-6.17083]]},"properties":{"OBJECTID":221,"Shape__Length":468.675989772414,"bounds":[106.82978,-6.175,106.83027,-6.17083]}},{"type":"Feature","geometry":{"type":"LineString","coordinates":[[106.83219,-6.18333],[106.83224,-6.18374]]},"properties":{"OBJECTID":222,"Shape__Length":45.8534208133919,"bounds":[106.83219,-6.18374,106.83224,-6.18333]}},{"type":"Feature","geometry":{"type":"LineString","coordinates":[[106.83219,-6.18333],[106.8318,-6.18047],[106.83144,-6.17917]]},"properties":{"OBJECTID":223,"Shape__Length":469.55765698426904,"bounds":[106.83144,-6.18333,106.83219,-6.17917]}},{"type":"Feature","geometry":{"type":"LineString","coordinates":[[106.83154,-6.17917],[106.83186,-6.18029],[106.83228,-6.18333]]},"properties":{"OBJECTID":224,"Shape__Length":469.322801979598,"bounds":[106.83154,-6.18333,106.83228,-6.17917]}},{"type":"Feature","geometry":{"type":"LineString","coordinates":[[106.82995,-6.17083],[106.83045,-6.16887],[106.83052,-6.16731]]},"properties":{"OBJECTID":225,"Shape__Length":397.24885982579104,"bounds":[106.82995,-6.17083,106.83052,-6.16731]}},{"type":"Feature","geometry":{"type":"LineString","coordinates":[[106.81019,-6.19226],[106.81021,-6.19202],[106.81004,-6.19278],[106.81001,-6.19349],[106.81007,-6.19411],[106.81049,-6.19615],[106.8105,-6.1967],[106.81041,-6.19718]]},"properties":{"OBJECTID":201,"Shape__Length":605.7048822516899,"bounds":[106.81001,-6.19718,106.8105,-6.19202]}},{"type":"Feature","geometry":{"type":"LineString","coordinates":[[106.81041,-6.19718],[106.81007,-6.19803]]},"properties":{"OBJECTID":202,"Shape__Length":103.168299954598,"bounds":[106.81007,-6.19803,106.81041,-6.19718]}},{"type":"Feature","geometry":{"type":"LineString","coordinates":[[106.80112,-6.20396],[106.79936,-6.20479],[106.79869,-6.20527],[106.79812,-6.2061],[106.79708,-6.20834]]},"properties":{"OBJECTID":203,"Shape__Length":692.475783057269,"bounds":[106.79708,-6.20834,106.80112,-6.20396]}},{"type":"Feature","geometry":{"type":"LineString","coordinates":[[106.83333,-6.20455],[106.83073,-6.20417],[106.82083,-6.20188],[106.81393,-6.2004],[106.81345,-6.20025],[106.81311,-6.20007],[106.8125,-6.19956]]},"properties":{"OBJECTID":204,"Shape__Length":2383.4685092926798,"bounds":[106.8125,-6.20455,106.83333,-6.19956]}},{"type":"Feature","geometry":{"type":"LineString","coordinates":[[106.83333,-6.20445],[106.83078,-6.20409],[106.8231,-6.2023],[106.81383,-6.20026],[106.81321,-6.19999],[106.81278,-6.19967],[106.8125,-6.19937]]},"properties":{"OBJECTID":205,"Shape__Length":2388.2584689047403,"bounds":[106.8125,-6.20445,106.83333,-6.19937]}},{"type":"Feature","geometry":{"type":"LineString","coordinates":[[106.83333,-6.18772],[106.833,-6.18702],[106.83273,-6.1862],[106.83254,-6.18532],[106.83233,-6.18374]]},"properties":{"OBJECTID":206,"Shape__Length":457.088858440211,"bounds":[106.83233,-6.18772,106.83333,-6.18374]}},{"type":"Feature","geometry":{"type":"LineString","coordinates":[[106.83224,-6.18374],[106.83245,-6.18536],[106.83264,-6.18621],[106.83292,-6.18704],[106.83333,-6.18791]]},"properties":{"OBJECTID":207,"Shape__Length":480.020542489433,"bounds":[106.83224,-6.18791,106.83333,-6.18374]}},{"type":"Feature","geometry":{"type":"LineString","coordinates":[[106.78199,-6.23851],[106.78142,-6.23995],[106.78085,-6.24083],[106.77706,-6.24539],[106.77311,-6.25]]},"properties":{"OBJECTID":208,"Shape__Length":1615.18562385768,"bounds":[106.77311,-6.25,106.78199,-6.23851]}},{"type":"Feature","geometry":{"type":"LineString","coordinates":[[106.78324,-6.23551],[106.7835,-6.23487],[106.78427,-6.23345],[106.78684,-6.22914]]},"properties":{"OBJECTID":209,"Shape__Length":810.821693836714,"bounds":[106.78324,-6.23551,106.78684,-6.22914]}},{"type":"Feature","geometry":{"type":"LineString","coordinates":[[106.78324,-6.23551],[106.78243,-6.2378],[106.78149,-6.23999],[106.78086,-6.24098],[106.77961,-6.24248]]},"properties":{"OBJECTID":210,"Shape__Length":877.755032204806,"bounds":[106.77961,-6.24248,106.78324,-6.23551]}},{"type":"Feature","geometry":{"type":"LineString","coordinates":[[106.7844,-6.23312],[106.78311,-6.23537],[106.78199,-6.23851]]},"properties":{"OBJECTID":211,"Shape__Length":655.414917482105,"bounds":[106.78199,-6.23851,106.7844,-6.23312]}},{"type":"Feature","geometry":{"type":"LineString","coordinates":[[106.75256,-6.26957],[106.75666,-6.2654],[106.7597,-6.2633],[106.76047,-6.26252],[106.76086,-6.26194],[106.76117,-6.26126],[106.76196,-6.25816],[106.76214,-6.25773],[106.7625,-6.25717]]},"properties":{"OBJECTID":216,"Shape__Length":1816.87095447112,"bounds":[106.75256,-6.26957,106.7625,-6.25717]}},{"type":"Feature","geometry":{"type":"LineString","coordinates":[[106.75254,-6.26948],[106.75661,-6.26535],[106.75712,-6.26494],[106.75955,-6.26329],[106.7604,-6.26246],[106.76078,-6.26189],[106.76103,-6.26136],[106.76187,-6.25813],[106.76211,-6.25758],[106.7625,-6.25701]]},"properties":{"OBJECTID":217,"Shape__Length":1823.35060952264,"bounds":[106.75254,-6.26948,106.7625,-6.25701]}},{"type":"Feature","geometry":{"type":"LineString","coordinates":[[106.83012,-6.175],[106.82969,-6.17273],[106.82968,-6.17197],[106.82986,-6.17083]]},"properties":{"OBJECTID":218,"Shape__Length":467.22795314195,"bounds":[106.82968,-6.175,106.83012,-6.17083]}},{"type":"Feature","geometry":{"type":"LineString","coordinates":[[106.77693,-6.24566],[106.77323,-6.25]]},"properties":{"OBJECTID":212,"Shape__Length":630.6872358444731,"bounds":[106.77323,-6.25,106.77693,-6.24566]}},{"type":"Feature","geometry":{"type":"LineString","coordinates":[[106.77961,-6.24248],[106.77693,-6.24566]]},"properties":{"OBJECTID":213,"Shape__Length":460.17992140769405,"bounds":[106.77693,-6.24566,106.77961,-6.24248]}},{"type":"Feature","geometry":{"type":"LineString","coordinates":[[106.78679,-6.22911],[106.78543,-6.2314]]},"properties":{"OBJECTID":214,"Shape__Length":295.04561015105804,"bounds":[106.78543,-6.2314,106.78679,-6.22911]}},{"type":"Feature","geometry":{"type":"LineString","coordinates":[[106.78543,-6.2314],[106.7844,-6.23312]]},"properties":{"OBJECTID":215,"Shape__Length":221.654451744895,"bounds":[106.7844,-6.23312,106.78543,-6.2314]}},{"type":"Feature","geometry":{"type":"LineString","coordinates":[[106.83144,-6.17917],[106.83051,-6.17679],[106.83028,-6.17599],[106.83012,-6.175]]},"properties":{"OBJECTID":226,"Shape__Length":485.512016970977,"bounds":[106.83012,-6.17917,106.83144,-6.175]}},{"type":"Feature","geometry":{"type":"LineString","coordinates":[[106.83233,-6.18374],[106.83228,-6.18333]]},"properties":{"OBJECTID":227,"Shape__Length":45.200942526456195,"bounds":[106.83228,-6.18374,106.83233,-6.18333]}},{"type":"Feature","geometry":{"type":"LineString","coordinates":[[106.83056,-6.16667],[106.83052,-6.16731]]},"properties":{"OBJECTID":228,"Shape__Length":75.2395867033524,"bounds":[106.83052,-6.16731,106.83056,-6.16667]}},{"type":"Feature","geometry":{"type":"LineString","coordinates":[[106.83038,-6.16667],[106.83043,-6.1673]]},"properties":{"OBJECTID":229,"Shape__Length":73.3730028287126,"bounds":[106.83038,-6.1673,106.83043,-6.16667]}},{"type":"Feature","geometry":{"type":"LineString","coordinates":[[106.83044,-6.16667],[106.83043,-6.1673]]},"properties":{"OBJECTID":230,"Shape__Length":70.18169649417061,"bounds":[106.83043,-6.1673,106.83044,-6.16667]}},{"type":"Feature","geometry":{"type":"LineString","coordinates":[[106.83052,-6.16667],[106.83052,-6.16731]]},"properties":{"OBJECTID":231,"Shape__Length":71.0761555712508,"bounds":[106.83052,-6.16731,106.83052,-6.16667]}},{"type":"Feature","geometry":{"type":"LineString","coordinates":[[106.76738,-6.25443],[106.76834,-6.25404],[106.76911,-6.25355],[106.77202,-6.25118],[106.77323,-6.25]]},"properties":{"OBJECTID":232,"Shape__Length":817.720680102584,"bounds":[106.76738,-6.25443,106.77323,-6.25]}},{"type":"Feature","geometry":{"type":"LineString","coordinates":[[106.76745,-6.25428],[106.76838,-6.2539],[106.76931,-6.25327],[106.77186,-6.25121],[106.77311,-6.25]]},"properties":{"OBJECTID":233,"Shape__Length":790.9999787700141,"bounds":[106.76745,-6.25428,106.77311,-6.25]}},{"type":"Feature","geometry":{"type":"LineString","coordinates":[[106.7625,-6.25701],[106.76288,-6.25663],[106.76347,-6.25621],[106.76476,-6.25552]]},"properties":{"OBJECTID":234,"Shape__Length":301.508788803917,"bounds":[106.7625,-6.25701,106.76476,-6.25552]}},{"type":"Feature","geometry":{"type":"LineString","coordinates":[[106.763,-6.25667],[106.7634,-6.25638],[106.76478,-6.25563]]},"properties":{"OBJECTID":235,"Shape__Length":227.990040372444,"bounds":[106.763,-6.25667,106.76478,-6.25563]}},{"type":"Feature","geometry":{"type":"LineString","coordinates":[[106.76476,-6.25552],[106.76501,-6.25539]]},"properties":{"OBJECTID":236,"Shape__Length":31.806926831694696,"bounds":[106.76476,-6.25552,106.76501,-6.25539]}},{"type":"Feature","geometry":{"type":"LineString","coordinates":[[106.76478,-6.25563],[106.76504,-6.2555]]},"properties":{"OBJECTID":237,"Shape__Length":32.199843575315704,"bounds":[106.76478,-6.25563,106.76504,-6.2555]}},{"type":"Feature","geometry":{"type":"LineString","coordinates":[[106.76501,-6.25539],[106.76627,-6.25476],[106.76745,-6.25428]]},"properties":{"OBJECTID":238,"Shape__Length":296.667556441391,"bounds":[106.76501,-6.25539,106.76745,-6.25428]}},{"type":"Feature","geometry":{"type":"LineString","coordinates":[[106.7625,-6.25717],[106.763,-6.25667]]},"properties":{"OBJECTID":239,"Shape__Length":79.1451292202726,"bounds":[106.7625,-6.25717,106.763,-6.25667]}},{"type":"Feature","geometry":{"type":"LineString","coordinates":[[106.76504,-6.2555],[106.76511,-6.25547]]},"properties":{"OBJECTID":240,"Shape__Length":8.07873288393669,"bounds":[106.76504,-6.2555,106.76511,-6.25547]}},{"type":"Feature","geometry":{"type":"LineString","coordinates":[[106.76511,-6.25547],[106.76603,-6.25498],[106.76738,-6.25443]]},"properties":{"OBJECTID":241,"Shape__Length":277.201011480018,"bounds":[106.76511,-6.25547,106.76738,-6.25443]}},{"type":"Feature","geometry":{"type":"LineString","coordinates":[[106.86208,-6.20834],[106.8604,-6.20221],[106.8594,-6.19885],[106.8587,-6.19693],[106.85784,-6.19553],[106.85406,-6.19048]]},"properties":{"OBJECTID":242,"Shape__Length":2195.99850059033,"bounds":[106.85406,-6.20834,106.86208,-6.19048]}},{"type":"Feature","geometry":{"type":"LineString","coordinates":[[106.86216,-6.20833],[106.86013,-6.2009],[106.85916,-6.19784],[106.85874,-6.19682],[106.85849,-6.19633],[106.85777,-6.19525],[106.85413,-6.19042]]},"properties":{"OBJECTID":243,"Shape__Length":2202.5624420509703,"bounds":[106.85413,-6.20833,106.86216,-6.19042]}},{"type":"Feature","geometry":{"type":"LineString","coordinates":[[106.79699,-6.20834],[106.79634,-6.20976],[106.79605,-6.21062],[106.7961,-6.21257],[106.79602,-6.21313],[106.79584,-6.21362],[106.79556,-6.21407],[106.79524,-6.21443],[106.79443,-6.21515],[106.79336,-6.21628],[106.79263,-6.21738],[106.79216,-6.21829],[106.78975,-6.22403],[106.78679,-6.22911]]},"properties":{"OBJECTID":244,"Shape__Length":2611.5901752409504,"bounds":[106.78679,-6.22911,106.79699,-6.20834]}},{"type":"Feature","geometry":{"type":"LineString","coordinates":[[106.79708,-6.20834],[106.79638,-6.20993],[106.79618,-6.21057],[106.79621,-6.21262],[106.79612,-6.2132],[106.79593,-6.2137],[106.79557,-6.21425],[106.79425,-6.21547],[106.79341,-6.2164],[106.79256,-6.21771],[106.79216,-6.21854],[106.78985,-6.22408],[106.78684,-6.22914]]},"properties":{"OBJECTID":245,"Shape__Length":2617.9622121597,"bounds":[106.78684,-6.22914,106.79708,-6.20834]}},{"type":"Feature","geometry":{"type":"LineString","coordinates":[[106.89935,-6.10984],[106.89935,-6.10974]]},"properties":{"OBJECTID":246,"Shape__Length":10.8773331032933,"bounds":[106.89935,-6.10984,106.89935,-6.10974]}},{"type":"Feature","geometry":{"type":"LineString","coordinates":[[106.88795,-6.10837],[106.88799,-6.10837]]},"properties":{"OBJECTID":247,"Shape__Length":4.67123374281356,"bounds":[106.88795,-6.10837,106.88799,-6.10837]}},{"type":"Feature","geometry":{"type":"LineString","coordinates":[[106.88147,-6.11105],[106.88144,-6.111],[106.88039,-6.1118],[106.88013,-6.11148],[106.88003,-6.11155]]},"properties":{"OBJECTID":248,"Shape__Length":211.89274923100203,"bounds":[106.88003,-6.1118,106.88147,-6.111]}}]}
