{"type":"FeatureCollection","features":[{"type":"Feature","geometry":{"type":"Point","coordinates":[106.9138073,-6.1570452]},"properties":{"name":"Stasiun Pegangsaan Dua","mode":"LRT Jakarta","query":"Stasiun Pegangsaan Dua, Jakarta, Indonesia","displayName":"Stasiun LRT Pegangsaan Dua, Jalan Gading Grande, RW 03, Pegangsaan Dua, Kelapa Gading, Jakarta Utara, Daerah Khusus Ibukota Jakarta, Jawa, 14250, Indonesia","locationMethod":"nominatim","description":"Official station list from the LRT Jakarta schedule page.","sourceUrl":"https://www.lrtjakarta.co.id/jadwal.html"}},{"type":"Feature","geometry":{"type":"Point","coordinates":[106.9057076,-6.1596475]},"properties":{"name":"Stasiun Boulevard Utara Summarecon Mall","mode":"LRT Jakarta","query":"Boulevard Utara LRT, Jakarta, Indonesia","displayName":"St. LRT Boulevard Utara 2, Jalan Boulevard Raya, RW 18, Kelapa Gading Timur, Kelapa Gading, Jakarta Utara, Daerah Khusus Ibukota Jakarta, Jawa, 14240, Indonesia","locationMethod":"nominatim","description":"Official station list from the LRT Jakarta schedule page.","sourceUrl":"https://www.lrtjakarta.co.id/jadwal.html"}},{"type":"Feature","geometry":{"type":"Point","coordinates":[106.89999550580978,-6.168989988163692]},"properties":{"name":"Stasiun Boulevard Selatan","mode":"LRT Jakarta","query":"Wikidata Q9970006","displayName":"Boulevard Selatan LRT station","locationMethod":"manual","locationSourceUrl":"https://www.wikidata.org/wiki/Q9970006","description":"Official station list from the LRT Jakarta schedule page.","sourceUrl":"https://www.lrtjakarta.co.id/jadwal.html"}},{"type":"Feature","geometry":{"type":"Point","coordinates":[106.8934327,-6.1771986]},"properties":{"name":"Stasiun Pulomas","mode":"LRT Jakarta","query":"Stasiun Pulomas, Jakarta, Indonesia","displayName":"Stasiun Pulomas, Jalan Pulo Nangka I, RW 08, Pulo Gadung, Jakarta Timur, Daerah Khusus Ibukota Jakarta, Jawa, 13210, Indonesia","locationMethod":"nominatim","description":"Official station list from the LRT Jakarta schedule page.","sourceUrl":"https://www.lrtjakarta.co.id/jadwal.html"}},{"type":"Feature","geometry":{"type":"Point","coordinates":[106.8914735,-6.183151]},"properties":{"name":"Stasiun Equestrian","mode":"LRT Jakarta","query":"Equestrian LRT, Jakarta, Indonesia","displayName":"St. LRT Equestrian 3, Jalan Raya Kayu Putih, RW 07, Pulo Gadung, Jakarta Timur, Daerah Khusus Ibukota Jakarta, Jawa, 13260, Indonesia","locationMethod":"nominatim","description":"Official station list from the LRT Jakarta schedule page.","sourceUrl":"https://www.lrtjakarta.co.id/jadwal.html"}},{"type":"Feature","geometry":{"type":"Point","coordinates":[106.8911549,-6.1920632]},"properties":{"name":"Stasiun Velodrome","mode":"LRT Jakarta","query":"Stasiun Velodrome, Jakarta, Indonesia","displayName":"Stasiun Velodrome, Skybridge LRT Velodrome Halte Pemuda, RW 01, Jati, Pulo Gadung, Jakarta Timur, Daerah Khusus Ibukota Jakarta, Jawa, 13250, Indonesia","locationMethod":"nominatim","description":"Official station list from the LRT Jakarta schedule page.","sourceUrl":"https://www.lrtjakarta.co.id/jadwal.html"}}]}
