{"type":"FeatureCollection","features":[{"type":"Feature","geometry":{"type":"LineString","coordinates":[[106.77436,-6.289421],[106.7924543,-6.2924669],[106.7973264,-6.2783417],[106.797331,-6.2666358],[106.7971492,-6.2557327],[106.7981194,-6.244444],[106.7984458,-6.2389211],[106.8024926,-6.2267337],[106.8086229,-6.22239],[106.8179484,-6.2150263],[106.8216945,-6.2090648],[106.822788,-6.2007957],[106.8230084,-6.1918644]]},"properties":{"name":"MRT Jakarta North-South Line","mode":"MRT Jakarta","bounds":[106.77436,-6.2924669,106.8230084,-6.1918644]}}]}
