{"type":"FeatureCollection","features":[{"type":"Feature","geometry":{"type":"Point","coordinates":[106.77436,-6.289421]},"properties":{"name":"Stasiun MRT Lebak Bulus Bank Syariah Indonesia","mode":"MRT Jakarta","query":"Stasiun MRT Lebak Bulus, Jakarta, Indonesia","displayName":"Stasiun MRT Lebak Bulus, Jalan Raya Pasar Jumat, RW 07, Lebak Bulus, Cilandak, Jakarta Selatan, Daerah Khusus Ibukota Jakarta, Jawa, 12310, Indonesia","locationMethod":"nominatim","slug":"stasiun-lebak-bulus","description":"Jalan Lebak Bulus Raya 38, Lebak Bulus, Cilandak, 12440, Jakarta Selatan, Indonesia","mapsUrl":"https://maps.app.goo.gl/yzSxH6oRqhHttxzt6","integration":["Metromini","Transjakarta"],"schedule":{"towardsStart":null,"towardsEnd":"Bundaran HI","weekdayToStart":{"first":null,"last":null},"weekendToStart":{"first":null,"last":null},"weekdayToEnd":{"first":"05:00:00","last":"23:27:00"},"weekendToEnd":{"first":"05:00:00","last":"23:27:00"},"firstRatanggaStart":"05:00","lastRatanggaStart":"23:27","firstRatanggaEnd":"05:00","lastRatanggaEnd":"23:27"}}},{"type":"Feature","geometry":{"type":"Point","coordinates":[106.7924543,-6.2924669]},"properties":{"name":"Stasiun MRT Fatmawati Indomaret","mode":"MRT Jakarta","query":"Stasiun MRT Fatmawati Indomaret, Jakarta, Indonesia","displayName":"Stasiun MRT Fatmawati Indomaret, Jalan Taman Cilandak Raya, RW 04, Cilandak Barat, Cilandak, Jakarta Selatan, Daerah Khusus Ibukota Jakarta, Jawa, 12430, Indonesia","locationMethod":"nominatim","slug":"stasiun-fatmawati-indomaret","description":"Jalan Raden Ajeng Kartini, Cilandak Barat, Cilandak, 12430, Jakarta Selatan, Indonesia","mapsUrl":"https://maps.app.goo.gl/yzSxH6oRqhHttxzt6","integration":["Bianglala","Kopaja"],"schedule":{"towardsStart":"Lebak Bulus","towardsEnd":"Bundaran HI","weekdayToStart":{"first":"05:32:40","last":"23:57:40"},"weekendToStart":{"first":"05:32:40","last":"23:57:40"},"weekdayToEnd":{"first":"05:03:10","last":"23:30:10"},"weekendToEnd":{"first":"05:02:20","last":"23:29:20"},"firstRatanggaStart":"05:19","lastRatanggaStart":"23:44","firstRatanggaEnd":"05:02","lastRatanggaEnd":"23:27"}}},{"type":"Feature","geometry":{"type":"Point","coordinates":[106.7973264,-6.2783417]},"properties":{"name":"Stasiun MRT Cipete Raya TUKU","mode":"MRT Jakarta","query":"Stasiun MRT Cipete Raya TUKU, Jakarta, Indonesia","displayName":"Stasiun MRT Cipete Raya TUKU, Jalan RS Fatmawati, RW 04, Cipete Selatan, Cilandak, Jakarta Selatan, Daerah Khusus Ibukota Jakarta, Jawa, 12420, Indonesia","locationMethod":"nominatim","slug":"stasiun-cipete-raya","description":"Jalan RS Fatmawati 15, Cipete Selatan, Cilandak, 12410, Jakarta Selatan, Indonesia","mapsUrl":"https://maps.app.goo.gl/yzSxH6oRqhHttxzt6","integration":[],"schedule":{"towardsStart":"Lebak Bulus","towardsEnd":"Bundaran HI","weekdayToStart":{"first":"05:29:20","last":"23:54:20"},"weekendToStart":{"first":"05:29:20","last":"23:54:20"},"weekdayToEnd":{"first":"05:06:10","last":"23:33:10"},"weekendToEnd":{"first":"05:05:40","last":"23:32:40"},"firstRatanggaStart":"05:19","lastRatanggaStart":"23:44","firstRatanggaEnd":"05:02","lastRatanggaEnd":"23:27"}}},{"type":"Feature","geometry":{"type":"Point","coordinates":[106.797331,-6.2666358]},"properties":{"name":"Stasiun MRT Haji Nawi","mode":"MRT Jakarta","query":"Stasiun MRT Haji Nawi, Jakarta, Indonesia","displayName":"Stasiun MRT Haji Nawi, Jalan RS Fatmawati, RW 03, Gandaria Selatan, Cilandak, Jakarta Selatan, Daerah Khusus Ibukota Jakarta, Jawa, 12420, Indonesia","locationMethod":"nominatim","slug":"stasiun-haji-nawi","description":"Jalan RS Fatmawati 33, Cipete Selatan, Cilandak, 12410, Jakarta Selatan, Indonesia","mapsUrl":"https://maps.app.goo.gl/yzSxH6oRqhHttxzt6","integration":[],"schedule":{"towardsStart":"Lebak Bulus","towardsEnd":"Bundaran HI","weekdayToStart":{"first":"05:27:00","last":"23:52:00"},"weekendToStart":{"first":"05:27:00","last":"23:52:00"},"weekdayToEnd":{"first":"05:08:20","last":"23:35:20"},"weekendToEnd":{"first":"05:07:50","last":"23:34:50"},"firstRatanggaStart":"05:19","lastRatanggaStart":"23:44","firstRatanggaEnd":"05:02","lastRatanggaEnd":"23:27"}}},{"type":"Feature","geometry":{"type":"Point","coordinates":[106.7971492,-6.2557327]},"properties":{"name":"Stasiun MRT Blok A","mode":"MRT Jakarta","query":"Stasiun MRT Blok A, Jakarta, Indonesia","displayName":"Stasiun MRT Blok A, Jalan RS Fatmawati, RW 01, Pulo, Kebayoran Baru, Jakarta Selatan, Daerah Khusus Ibukota Jakarta, Jawa, 12140, Indonesia","locationMethod":"nominatim","slug":"stasiun-blok-a","description":"Jalan RS Fatmawati 58, Pulo, Kebayoran Baru, 12160, Jakarta Selatan, Indonesi","mapsUrl":"https://maps.app.goo.gl/yzSxH6oRqhHttxzt6","integration":["Kopaja","PPD"],"schedule":{"towardsStart":"Lebak Bulus","towardsEnd":"Bundaran HI","weekdayToStart":{"first":"05:24:40","last":"23:49:40"},"weekendToStart":{"first":"05:24:40","last":"23:49:40"},"weekdayToEnd":{"first":"05:10:40","last":"23:37:40"},"weekendToEnd":{"first":"05:10:10","last":"23:37:10"},"firstRatanggaStart":"05:19","lastRatanggaStart":"23:44","firstRatanggaEnd":"05:02","lastRatanggaEnd":"23:27"}}},{"type":"Feature","geometry":{"type":"Point","coordinates":[106.7981194,-6.244444]},"properties":{"name":"Stasiun MRT Blok M BCA","mode":"MRT Jakarta","query":"Stasiun MRT Blok M BCA, Jakarta, Indonesia","displayName":"Stasiun MRT Blok M BCA, Jalan Panglima Polim Raya, RW 06, Kramat Pela, Kebayoran Baru, Jakarta Selatan, Daerah Khusus Ibukota Jakarta, Jawa, 12610, Indonesia","locationMethod":"nominatim","slug":"stasiun-blok-m-bca","description":"Jalan Panglima Polim Raya 116, Melawai, Kebayoran Baru, 12160, Jakarta Selatan, Indonesia","mapsUrl":"https://maps.app.goo.gl/yzSxH6oRqhHttxzt6","integration":["Kopaja","Mayasari Bakti","Metromini","PPD","Steady Safe","Transjakarta"],"schedule":{"towardsStart":"Lebak Bulus","towardsEnd":"Bundaran HI","weekdayToStart":{"first":"05:22:10","last":"23:47:10"},"weekendToStart":{"first":"05:22:10","last":"23:47:10"},"weekdayToEnd":{"first":"05:00:00","last":"23:25:20"},"weekendToEnd":{"first":"05:12:30","last":"23:40:10"},"firstRatanggaStart":"05:19","lastRatanggaStart":"23:44","firstRatanggaEnd":"05:02","lastRatanggaEnd":"23:27"}}},{"type":"Feature","geometry":{"type":"Point","coordinates":[106.7984458,-6.2389211]},"properties":{"name":"ASEAN Headquarter","mode":"MRT Jakarta","query":"ASEAN MRT, Jakarta, Indonesia","displayName":"Stasiun MRT ASEAN Headquarters, Jalan Sisingamangaraja, RW 08, Gunung, Kebayoran Baru, Jakarta Selatan, Daerah Khusus Ibukota Jakarta, Jawa, 12130, Indonesia","locationMethod":"nominatim","slug":"stasiun-asean","description":"Jalan Sisingamangaraja 12, Gunung, Kebayoran Baru, 12120, Jakarta Selatan, Indonesia","mapsUrl":"https://maps.app.goo.gl/yzSxH6oRqhHttxzt6","integration":["Metromini","Transjakarta"],"schedule":{"towardsStart":"Lebak Bulus","towardsEnd":"Bundaran HI","weekdayToStart":{"first":"05:19:50","last":"23:44:50"},"weekendToStart":{"first":"05:19:50","last":"23:44:50"},"weekdayToEnd":{"first":"05:02:30","last":"23:27:10"},"weekendToEnd":{"first":"05:02:00","last":"23:26:40"},"firstRatanggaStart":"05:19","lastRatanggaStart":"23:44","firstRatanggaEnd":"05:02","lastRatanggaEnd":"23:27"}}},{"type":"Feature","geometry":{"type":"Point","coordinates":[106.8024926,-6.2267337]},"properties":{"name":"Stasiun MRT Senayan Mastercard","mode":"MRT Jakarta","query":"Stasiun Senayan, Jakarta, Indonesia","displayName":"Senayan Mastercard, Jalan Jenderal Sudirman, RW 03, Senayan, Kebayoran Baru, Jakarta Selatan, Daerah Khusus Ibukota Jakarta, Jawa, 12190, Indonesia","locationMethod":"nominatim","slug":"stasiun-senayan-mastercard","description":"Jalan Jenderal Sudirman, Senayan, Kebayoran Baru, 12190, Jakarta Selatan, Indonesia","mapsUrl":"https://maps.app.goo.gl/yzSxH6oRqhHttxzt6","integration":["Bianglala","Kopaja","Mayasari Bakti","Metromini","PPD","Transjakarta"],"schedule":{"towardsStart":"Lebak Bulus","towardsEnd":"Bundaran HI","weekdayToStart":{"first":"05:17:20","last":"23:42:20"},"weekendToStart":{"first":"05:17:20","last":"23:42:20"},"weekdayToEnd":{"first":"05:05:00","last":"23:29:40"},"weekendToEnd":{"first":"05:04:30","last":"23:29:10"},"firstRatanggaStart":"05:19","lastRatanggaStart":"23:44","firstRatanggaEnd":"05:02","lastRatanggaEnd":"23:27"}}},{"type":"Feature","geometry":{"type":"Point","coordinates":[106.8086229,-6.22239]},"properties":{"name":"Stasiun MRT Istora Mandiri","mode":"MRT Jakarta","query":"Stasiun Istora Mandiri, Jakarta, Indonesia","displayName":"Istora Mandiri, Jalan Jenderal Sudirman, RW 03, Senayan, Kebayoran Baru, Jakarta Selatan, Daerah Khusus Ibukota Jakarta, Jawa, 12190, Indonesia","locationMethod":"nominatim","slug":"stasiun-istora-mandiri","description":"Jalan Jenderal Sudirman Kav. 200, Senayan, Kebayoran Baru, 12190, Jakarta Selatan, Indonesia","mapsUrl":"https://maps.app.goo.gl/yzSxH6oRqhHttxzt6","integration":["Bianglala","Kopaja","Mayasari Bakti","Metromini","PPD","Transjakarta"],"schedule":{"towardsStart":"Lebak Bulus","towardsEnd":"Bundaran HI","weekdayToStart":{"first":"05:15:30","last":"23:40:30"},"weekendToStart":{"first":"05:15:30","last":"23:40:30"},"weekdayToEnd":{"first":"05:07:00","last":"23:31:40"},"weekendToEnd":{"first":"05:06:20","last":"23:31:00"},"firstRatanggaStart":"05:19","lastRatanggaStart":"23:44","firstRatanggaEnd":"05:02","lastRatanggaEnd":"23:27"}}},{"type":"Feature","geometry":{"type":"Point","coordinates":[106.8179484,-6.2150263]},"properties":{"name":"Stasiun MRT Bendungan Hilir","mode":"MRT Jakarta","query":"Stasiun Bendungan Hilir, Jakarta, Indonesia","displayName":"Bendungan Hilir, Jalan Jenderal Sudirman, RW 04, Karet Semanggi, Setiabudi, Jakarta Selatan, Daerah Khusus Ibukota Jakarta, Jawa, 10220, Indonesia","locationMethod":"nominatim","slug":"stasiun-bendungan-hilir","description":"Jalan Jenderal Sudirman, Karet Tengsin, Tanah Abang, 10220, Jakarta Pusat, Indonesia dan juga Karet Semanggi, Setiabudi, 12930, Jakarta Selatan, Indonesia","mapsUrl":"https://maps.app.goo.gl/yzSxH6oRqhHttxzt6","integration":["Bianglala","Kopaja","Mayasari Bakti","Metromini","PPD","Transjakarta"],"schedule":{"towardsStart":"Lebak Bulus","towardsEnd":"Bundaran HI","weekdayToStart":{"first":"05:13:10","last":"23:38:10"},"weekendToStart":{"first":"05:13:10","last":"23:38:10"},"weekdayToEnd":{"first":"05:09:30","last":"23:34:10"},"weekendToEnd":{"first":"05:08:50","last":"23:33:30"},"firstRatanggaStart":"05:19","lastRatanggaStart":"23:44","firstRatanggaEnd":"05:02","lastRatanggaEnd":"23:27"}}},{"type":"Feature","geometry":{"type":"Point","coordinates":[106.8216945,-6.2090648]},"properties":{"name":"Stasiun MRT Setiabudi Astra","mode":"MRT Jakarta","query":"Stasiun Setiabudi Astra, Jakarta, Indonesia","displayName":"Setiabudi Astra, Jalan Jenderal Sudirman, RW 11, Karet Tengsin, Tanah Abang, Jakarta Pusat, Daerah Khusus Ibukota Jakarta, Jawa, 10220, Indonesia","locationMethod":"nominatim","slug":"stasiun-setiabudi-astra","description":"Jalan Jenderal Sudirman Kav. 21, Setiabudi, 12910, Jakarta Selatan, Indonesi","mapsUrl":"https://maps.app.goo.gl/yzSxH6oRqhHttxzt6","integration":["Bianglala","Kopaja","Mayasari Bakti","Metromini","PPD","Transjakarta"],"schedule":{"towardsStart":"Lebak Bulus","towardsEnd":"Bundaran HI","weekdayToStart":{"first":"05:11:20","last":"23:36:20"},"weekendToStart":{"first":"05:11:20","last":"23:36:20"},"weekdayToEnd":{"first":"05:11:30","last":"23:36:10"},"weekendToEnd":{"first":"05:11:30","last":"23:36:10"},"firstRatanggaStart":"05:19","lastRatanggaStart":"23:44","firstRatanggaEnd":"05:02","lastRatanggaEnd":"23:27"}}},{"type":"Feature","geometry":{"type":"Point","coordinates":[106.822788,-6.2007957]},"properties":{"name":"Stasiun MRT Dukuh Atas BNI","mode":"MRT Jakarta","query":"Stasiun Dukuh Atas, Jakarta, Indonesia","displayName":"Dukuh Atas BNI, Jalan Tanjung Karang, RW 02, Kebon Melati, Tanah Abang, Jakarta Pusat, Daerah Khusus Ibukota Jakarta, Jawa, 10230, Indonesia","locationMethod":"nominatim","slug":"stasiun-dukuh-atas-bni","description":"Jalan Tanjung Karang, Kebon Melati, Tanah Abang, 10230, Jakarta Pusat, Indonesia","mapsUrl":"https://maps.app.goo.gl/yzSxH6oRqhHttxzt6","integration":["Bianglala","Kopaja","Mayasari Bakti","Metromini","PPD","Transjakarta"],"schedule":{"towardsStart":"Lebak Bulus","towardsEnd":"Bundaran HI","weekdayToStart":{"first":"05:09:20","last":"23:34:20"},"weekendToStart":{"first":"05:09:20","last":"23:34:20"},"weekdayToEnd":{"first":"05:13:40","last":"23:38:20"},"weekendToEnd":{"first":"05:13:40","last":"23:38:20"},"firstRatanggaStart":"05:19","lastRatanggaStart":"23:44","firstRatanggaEnd":"05:02","lastRatanggaEnd":"23:27"}}},{"type":"Feature","geometry":{"type":"Point","coordinates":[106.8230084,-6.1918644]},"properties":{"name":"Bundaran HI Bank Jakarta","mode":"MRT Jakarta","query":"Bundaran HI Bank Jakarta, Jakarta, Indonesia","displayName":"Bundaran HI Bank Jakarta, Jalan Mohammad Husni Thamrin, RW 05, Gondangdia, Menteng, Jakarta Pusat, Daerah Khusus Ibukota Jakarta, Jawa, 10350, Indonesia","locationMethod":"nominatim","slug":"bundaran-hi-bank-jakarta","description":"Jalan Mohammad Husni Thamrin Kav. 17- 136, Gondangdia, Menteng, 10350, Jakarta Pusat, Indonesia","mapsUrl":"https://maps.app.goo.gl/yzSxH6oRqhHttxzt6","integration":["Metromini","Transjakarta"],"schedule":{"towardsStart":"Lebak Bulus","towardsEnd":null,"weekdayToStart":{"first":"05:06:30","last":"23:31:30"},"weekendToStart":{"first":"05:06:30","last":"23:31:30"},"weekdayToEnd":{"first":null,"last":null},"weekendToEnd":{"first":null,"last":null},"firstRatanggaStart":"05:06","lastRatanggaStart":"23:31","firstRatanggaEnd":"05:06","lastRatanggaEnd":"23:31"}}}]}
